{
"type": "FeatureCollection",
"name": "locations_fusion_developers",
"crs": { "type": "name", "properties": { "name": "urn:ogc:def:crs:OGC:1.3:CRS84" } },
"features": [
{ "type": "Feature", "properties": { "address": "Cambridge, CB2 3NR, Cambridge, England, United Kingdom", "city": "Cambridge" }, "geometry": { "type": "Point", "coordinates": [ 0.1186637, 52.2055314 ] } },
{ "type": "Feature", "properties": { "address": "Gurgaon, Haryāna, India", "city": "Gurgoan" }, "geometry": { "type": "Point", "coordinates": [ 77.0299194, 28.4646148 ] } },
{ "type": "Feature", "properties": { "address": "Tukwila, Washington, United States", "city": "Tukwila" }, "geometry": { "type": "Point", "coordinates": [ -122.2559156, 47.4627356 ] } },
{ "type": "Feature", "properties": { "address": "Goleta, California, United States", "city": "Goleta" }, "geometry": { "type": "Point", "coordinates": [ -119.8276389, 34.4358295 ] } },
{ "type": "Feature", "properties": { "address": "Nantes, 44000;44100;44200;44300, Pays de la Loire, France", "city": null }, "geometry": { "type": "Point", "coordinates": [ -1.5541362, 47.2186371 ] } },
{ "type": "Feature", "properties": { "address": "Pickering, England, United Kingdom", "city": "Pickering" }, "geometry": { "type": "Point", "coordinates": [ -0.7765631, 54.2456591 ] } },
{ "type": "Feature", "properties": { "address": "上海街道, 福州市, 福建省, 中国", "city": "Shanghai" }, "geometry": { "type": "Point", "coordinates": [ 119.2907523, 26.0701988 ] } },
{ "type": "Feature", "properties": { "address": "Cambridge, CB2 3NR, Cambridge, England, United Kingdom", "city": "Cambridge" }, "geometry": { "type": "Point", "coordinates": [ 0.1186637, 52.2055314 ] } },
{ "type": "Feature", "properties": { "address": "Nantes, 44000;44100;44200;44300, Pays de la Loire, France", "city": null }, "geometry": { "type": "Point", "coordinates": [ -1.5541362, 47.2186371 ] } },
{ "type": "Feature", "properties": { "address": "Grono, 6537, Graubünden/Grigioni/Grischun, Schweiz/Suisse/Svizzera/Svizra", "city": "Grono" }, "geometry": { "type": "Point", "coordinates": [ 9.1458622, 46.2473782 ] } },
{ "type": "Feature", "properties": { "address": "Broomfield, Colorado, United States", "city": "Broomfield" }, "geometry": { "type": "Point", "coordinates": [ -105.05208, 39.9403995 ] } },
{ "type": "Feature", "properties": { "address": "San Diego, California, United States", "city": "San Diego" }, "geometry": { "type": "Point", "coordinates": [ -117.162772, 32.7174202 ] } },
{ "type": "Feature", "properties": { "address": "浦东街道, 商丘市, 河南省, 中国", "city": "Pudong" }, "geometry": { "type": "Point", "coordinates": [ 115.328, 34.081 ] } },
{ "type": "Feature", "properties": { "address": "廊坊市, 河北省, 中国", "city": "Langfang" }, "geometry": { "type": "Point", "coordinates": [ 116.6926134, 39.5302055 ] } },
{ "type": "Feature", "properties": { "address": "大阪市, 大阪府, 日本", "city": "Osaka" }, "geometry": { "type": "Point", "coordinates": [ 135.5014539, 34.6937569 ] } },
{ "type": "Feature", "properties": { "address": "Aix-en-Provence, 13090;13100;13080;13290;13540, Provence-Alpes-Côte d'Azur, France", "city": "Aix-en-Provence" }, "geometry": { "type": "Point", "coordinates": [ 5.4474738, 43.5298424 ] } },
{ "type": "Feature", "properties": { "address": "Darmstadt, Hessen, Deutschland", "city": "Darmstadt" }, "geometry": { "type": "Point", "coordinates": [ 8.651177, 49.872775 ] } },
{ "type": "Feature", "properties": { "address": "Palo Alto, California, United States", "city": "Palo Alto" }, "geometry": { "type": "Point", "coordinates": [ -122.1598465, 37.4443293 ] } },
{ "type": "Feature", "properties": { "address": "Technische Universität München, Walther-Meißner-Straße, 85748, Walther-Meißner-Straße, Garching bei München, Bayern, Deutschland", "city": "Garching/Munich" }, "geometry": { "type": "Point", "coordinates": [ 11.6692249, 48.2654976 ] } },
{ "type": "Feature", "properties": { "address": "San Diego, California, United States", "city": "San Diego" }, "geometry": { "type": "Point", "coordinates": [ -117.162772, 32.7174202 ] } },
{ "type": "Feature", "properties": { "address": "Richmond, Virginia, United States", "city": "Richmond" }, "geometry": { "type": "Point", "coordinates": [ -77.43428, 37.5385087 ] } },
{ "type": "Feature", "properties": { "address": "Bordeaux, 33000;33100;33200;33300;33800, Nouvelle-Aquitaine, France", "city": "Bordeaux" }, "geometry": { "type": "Point", "coordinates": [ -0.5800364, 44.841225 ] } },
{ "type": "Feature", "properties": { "address": "Sydney, New South Wales, Australia", "city": "Sydney" }, "geometry": { "type": "Point", "coordinates": [ 151.2082848, -33.8698439 ] } },
{ "type": "Feature", "properties": { "address": "東京都, 日本", "city": "Tokyo" }, "geometry": { "type": "Point", "coordinates": [ 139.7638947, 35.6768601 ] } },
{ "type": "Feature", "properties": { "address": "Pasadena, California, United States", "city": "Pasadena" }, "geometry": { "type": "Point", "coordinates": [ -118.144155, 34.1476507 ] } },
{ "type": "Feature", "properties": { "address": "Everett, Washington, United States", "city": "Everett" }, "geometry": { "type": "Point", "coordinates": [ -122.2127011, 47.9793437 ] } },
{ "type": "Feature", "properties": { "address": "成都, 站北西横街, 610084, 站北西横街, 成都市, 四川省, 中国", "city": "Chengdu" }, "geometry": { "type": "Point", "coordinates": [ 104.0708278, 30.7001324 ] } },
{ "type": "Feature", "properties": { "address": "Nantes, 44000;44100;44200;44300, Pays de la Loire, France", "city": null }, "geometry": { "type": "Point", "coordinates": [ -1.5541362, 47.2186371 ] } },
{ "type": "Feature", "properties": { "address": "Longmont, Colorado, United States", "city": "Longmont" }, "geometry": { "type": "Point", "coordinates": [ -105.101928, 40.1672117 ] } },
{ "type": "Feature", "properties": { "address": "Nantes, 44000;44100;44200;44300, Pays de la Loire, France", "city": null }, "geometry": { "type": "Point", "coordinates": [ -1.5541362, 47.2186371 ] } },
{ "type": "Feature", "properties": { "address": "Solana Beach, 92075, California, United States", "city": "Solana Beach" }, "geometry": { "type": "Point", "coordinates": [ -117.2678124, 32.9919141 ] } },
{ "type": "Feature", "properties": { "address": "Berkeley, California, United States", "city": "Berkeley" }, "geometry": { "type": "Point", "coordinates": [ -122.272863, 37.8708393 ] } },
{ "type": "Feature", "properties": { "address": "Nantes, 44000;44100;44200;44300, Pays de la Loire, France", "city": null }, "geometry": { "type": "Point", "coordinates": [ -1.5541362, 47.2186371 ] } },
{ "type": "Feature", "properties": { "address": "Nantes, 44000;44100;44200;44300, Pays de la Loire, France", "city": null }, "geometry": { "type": "Point", "coordinates": [ -1.5541362, 47.2186371 ] } },
{ "type": "Feature", "properties": { "address": "Santa Fe, Argentina", "city": "Santa Fe" }, "geometry": { "type": "Point", "coordinates": [ -61.1645076, -30.3154739 ] } },
{ "type": "Feature", "properties": { "address": "東京都, 日本", "city": "Tokyo" }, "geometry": { "type": "Point", "coordinates": [ 139.7638947, 35.6768601 ] } },
{ "type": "Feature", "properties": { "address": "Orinda, 94563, California, United States", "city": "Orinda" }, "geometry": { "type": "Point", "coordinates": [ -122.1796888, 37.8771476 ] } },
{ "type": "Feature", "properties": { "address": "Middlesex, England, United Kingdom", "city": "Middlesex" }, "geometry": { "type": "Point", "coordinates": [ -0.2537791, 51.5460558 ] } },
{ "type": "Feature", "properties": { "address": "Tustin, California, United States", "city": "Tustin" }, "geometry": { "type": "Point", "coordinates": [ -117.826166, 33.7458511 ] } },
{ "type": "Feature", "properties": { "address": "San Francisco, California, United States", "city": "San Francisco" }, "geometry": { "type": "Point", "coordinates": [ -122.4075201, 37.7879363 ] } },
{ "type": "Feature", "properties": { "address": "Munich, North Dakota, United States", "city": "Munich" }, "geometry": { "type": "Point", "coordinates": [ -98.832631, 48.669174 ] } },
{ "type": "Feature", "properties": { "address": "Chantilly, 60500, Hauts-de-France, France", "city": "Chantilly" }, "geometry": { "type": "Point", "coordinates": [ 2.4636686, 49.1931736 ] } },
{ "type": "Feature", "properties": { "address": "合肥市, 安徽省, 中国", "city": "Hefei" }, "geometry": { "type": "Point", "coordinates": [ 117.281428, 31.8665676 ] } },
{ "type": "Feature", "properties": { "address": "上海街道, 福州市, 福建省, 中国", "city": "Shanghai" }, "geometry": { "type": "Point", "coordinates": [ 119.2907523, 26.0701988 ] } },
{ "type": "Feature", "properties": { "address": "Stockholm, 111 29, Sverige", "city": "Stockholm" }, "geometry": { "type": "Point", "coordinates": [ 18.0710935, 59.3251172 ] } },
{ "type": "Feature", "properties": { "address": "הוד השרון, מחוז המרכז, ישראל", "city": "Hod HaSharon" }, "geometry": { "type": "Point", "coordinates": [ 34.8851247, 32.1499496 ] } },
{ "type": "Feature", "properties": { "address": "Wellington, 6011, Wellington, New Zealand / Aotearoa", "city": "Wellington" }, "geometry": { "type": "Point", "coordinates": [ 174.7772114, -41.2887953 ] } },
{ "type": "Feature", "properties": { "address": "Fremont, California, United States", "city": "Fremont" }, "geometry": { "type": "Point", "coordinates": [ -121.988571, 37.5482697 ] } },
{ "type": "Feature", "properties": { "address": "Bengaluru, Karnataka, India", "city": "Bangalore" }, "geometry": { "type": "Point", "coordinates": [ 77.590082, 12.9767936 ] } },
{ "type": "Feature", "properties": { "address": "Princeton, New Jersey, United States", "city": "Princeton" }, "geometry": { "type": "Point", "coordinates": [ -74.6597376, 40.3496953 ] } },
{ "type": "Feature", "properties": { "address": "Munich, North Dakota, United States", "city": "Munich" }, "geometry": { "type": "Point", "coordinates": [ -98.832631, 48.669174 ] } },
{ "type": "Feature", "properties": { "address": "Bletchley, MK2 2FY, England, United Kingdom", "city": "Bletchley" }, "geometry": { "type": "Point", "coordinates": [ -0.7325655, 51.9943694 ] } },
{ "type": "Feature", "properties": { "address": "Nantes, 44000;44100;44200;44300, Pays de la Loire, France", "city": null }, "geometry": { "type": "Point", "coordinates": [ -1.5541362, 47.2186371 ] } },
{ "type": "Feature", "properties": { "address": "Madison, Wisconsin, United States", "city": "Madison" }, "geometry": { "type": "Point", "coordinates": [ -89.3841663, 43.07469 ] } },
{ "type": "Feature", "properties": { "address": "Grenoble, 38000;38100, Auvergne-Rhône-Alpes, France", "city": "Grenoble" }, "geometry": { "type": "Point", "coordinates": [ 5.7357819, 45.1875602 ] } },
{ "type": "Feature", "properties": { "address": "Janesville, Wisconsin, United States", "city": "Janesville" }, "geometry": { "type": "Point", "coordinates": [ -89.0226793, 42.6829765 ] } },
{ "type": "Feature", "properties": { "address": "西安区, 157000, 黑龙江省, 中国", "city": "Xi'an" }, "geometry": { "type": "Point", "coordinates": [ 129.609026699999987, 44.5754873 ] } },
{ "type": "Feature", "properties": { "address": "Princeton, New Jersey, United States", "city": "Princeton" }, "geometry": { "type": "Point", "coordinates": [ -74.6597376, 40.3496953 ] } },
{ "type": "Feature", "properties": { "address": "Nantes, 44000;44100;44200;44300, Pays de la Loire, France", "city": null }, "geometry": { "type": "Point", "coordinates": [ -1.5541362, 47.2186371 ] } },
{ "type": "Feature", "properties": { "address": "Foothill Ranch, 92610, Lake Forest, California, United States", "city": "Foothill Ranch" }, "geometry": { "type": "Point", "coordinates": [ -117.662249, 33.6837644 ] } }
]
}
