{
"type": "FeatureCollection",
"name": "locations_orgs",
"crs": { "type": "name", "properties": { "name": "urn:ogc:def:crs:OGC:1.3:CRS84" } },
"features": [
{ "type": "Feature", "properties": { "address": "Ames, 62190, Hauts-de-France, France", "city": "Ames" }, "geometry": { "type": "Point", "coordinates": [ 2.4086536, 50.536715 ] } },
{ "type": "Feature", "properties": { "address": "Lemont, 60439, Illinois, United States", "city": "Lemont" }, "geometry": { "type": "Point", "coordinates": [ -88.0016263, 41.6737149 ] } },
{ "type": "Feature", "properties": { "address": "Nantes, 44000;44100;44200;44300, Pays de la Loire, France", "city": null }, "geometry": { "type": "Point", "coordinates": [ -1.5541362, 47.2186371 ] } },
{ "type": "Feature", "properties": { "address": "Wien, Österreich", "city": "Vienna" }, "geometry": { "type": "Point", "coordinates": [ 16.3725042, 48.2083537 ] } },
{ "type": "Feature", "properties": { "address": "Nantes, 44000;44100;44200;44300, Pays de la Loire, France", "city": null }, "geometry": { "type": "Point", "coordinates": [ -1.5541362, 47.2186371 ] } },
{ "type": "Feature", "properties": { "address": "Академгородок, 660000, Красноярск, Красноярский край, Россия", "city": "Akademgorodok" }, "geometry": { "type": "Point", "coordinates": [ 92.7659608, 55.9891898 ] } },
{ "type": "Feature", "properties": { "address": "Sofia, Madagasikara", "city": "Sofia" }, "geometry": { "type": "Point", "coordinates": [ 48.2261624, -15.2817944 ] } },
{ "type": "Feature", "properties": { "address": "Pasadena, California, United States", "city": "Pasadena" }, "geometry": { "type": "Point", "coordinates": [ -118.144155, 34.1476507 ] } },
{ "type": "Feature", "properties": { "address": "Nantes, 44000;44100;44200;44300, Pays de la Loire, France", "city": null }, "geometry": { "type": "Point", "coordinates": [ -1.5541362, 47.2186371 ] } },
{ "type": "Feature", "properties": { "address": "Boulder, Colorado, United States", "city": "Boulder" }, "geometry": { "type": "Point", "coordinates": [ -105.270545, 40.0149856 ] } },
{ "type": "Feature", "properties": { "address": "Urbana, Illinois, United States", "city": "Urbana" }, "geometry": { "type": "Point", "coordinates": [ -88.207301, 40.1117174 ] } },
{ "type": "Feature", "properties": { "address": "Madrid, Comunidad de Madrid, España", "city": "Madrid" }, "geometry": { "type": "Point", "coordinates": [ -3.703507, 40.416782 ] } },
{ "type": "Feature", "properties": { "address": "Golden, Colorado, United States", "city": "Golden" }, "geometry": { "type": "Point", "coordinates": [ -105.22058, 39.7546349 ] } },
{ "type": "Feature", "properties": { "address": "New York, New York, United States", "city": "New York" }, "geometry": { "type": "Point", "coordinates": [ -74.0060152, 40.7127281 ] } },
{ "type": "Feature", "properties": { "address": "Bratislava, Bratislavský kraj, Slovensko", "city": "Bratislava" }, "geometry": { "type": "Point", "coordinates": [ 17.1313541, 48.1559178 ] } },
{ "type": "Feature", "properties": { "address": "合肥市, 安徽省, 中国", "city": "Hefei" }, "geometry": { "type": "Point", "coordinates": [ 117.281428, 31.8665676 ] } },
{ "type": "Feature", "properties": { "address": "Ithaca, New York, United States", "city": "Ithaca" }, "geometry": { "type": "Point", "coordinates": [ -76.5483724, 42.4374175 ] } },
{ "type": "Feature", "properties": { "address": "Nantes, 44000;44100;44200;44300, Pays de la Loire, France", "city": null }, "geometry": { "type": "Point", "coordinates": [ -1.5541362, 47.2186371 ] } },
{ "type": "Feature", "properties": { "address": "Culham, South Oxfordshire, England, United Kingdom", "city": "Culham" }, "geometry": { "type": "Point", "coordinates": [ -1.2550716, 51.656287 ] } },
{ "type": "Feature", "properties": { "address": "Αθήνα, 105 57, Αποκεντρωμένη Διοίκηση Αττικής, Ελλάς", "city": "Athens" }, "geometry": { "type": "Point", "coordinates": [ 23.7348324, 37.9755648 ] } },
{ "type": "Feature", "properties": { "address": "Dublin, Éire / Ireland", "city": "Dublin" }, "geometry": { "type": "Point", "coordinates": [ -6.2605593, 53.3493795 ] } },
{ "type": "Feature", "properties": { "address": "Utrecht, Utrecht, Nederland", "city": "Utrecht" }, "geometry": { "type": "Point", "coordinates": [ 5.1215634, 52.0907006 ] } },
{ "type": "Feature", "properties": { "address": "Paris, Île-de-France, France", "city": "Paris" }, "geometry": { "type": "Point", "coordinates": [ 2.3483915, 48.8534951 ] } },
{ "type": "Feature", "properties": { "address": "Bruxelles - Brussel, Région de Bruxelles-Capitale - Brussels Hoofdstedelijk Gewest, België / Belgique / Belgien", "city": "Brussels" }, "geometry": { "type": "Point", "coordinates": [ 4.352493, 50.8467372 ] } },
{ "type": "Feature", "properties": { "address": "Jülich, 52428, Nordrhein-Westfalen, Deutschland", "city": "Jülich" }, "geometry": { "type": "Point", "coordinates": [ 6.3611015, 50.9220931 ] } },
{ "type": "Feature", "properties": { "address": "Casariche, 41580, Andalucía, España", "city": "Cadarache" }, "geometry": { "type": "Point", "coordinates": [ -4.7588421, 37.2955536 ] } },
{ "type": "Feature", "properties": { "address": "Nantes, 44000;44100;44200;44300, Pays de la Loire, France", "city": null }, "geometry": { "type": "Point", "coordinates": [ -1.5541362, 47.2186371 ] } },
{ "type": "Feature", "properties": { "address": "合肥市, 安徽省, 中国", "city": "Hefei" }, "geometry": { "type": "Point", "coordinates": [ 117.281428, 31.8665676 ] } },
{ "type": "Feature", "properties": { "address": "武汉市, 湖北省, 中国", "city": "Wuhan" }, "geometry": { "type": "Point", "coordinates": [ 114.2921197, 30.578891 ] } },
{ "type": "Feature", "properties": { "address": "Budapest, Közép-Magyarország, Magyarország", "city": "Budapest" }, "geometry": { "type": "Point", "coordinates": [ 19.1457723, 47.4813896 ] } },
{ "type": "Feature", "properties": { "address": "Idaho Falls, Idaho, United States", "city": "Idaho Falls" }, "geometry": { "type": "Point", "coordinates": [ -112.03628, 43.4887907 ] } },
{ "type": "Feature", "properties": { "address": "London, England, United Kingdom", "city": "London" }, "geometry": { "type": "Point", "coordinates": [ -0.1277653, 51.5074456 ] } },
{ "type": "Feature", "properties": { "address": "北京市, 中国", "city": "Beijing" }, "geometry": { "type": "Point", "coordinates": [ 116.3912972, 39.9057136 ] } },
{ "type": "Feature", "properties": { "address": "Măgurele, România", "city": "Măgurele" }, "geometry": { "type": "Point", "coordinates": [ 26.0372636, 45.1022492 ] } },
{ "type": "Feature", "properties": { "address": "Nantes, 44000;44100;44200;44300, Pays de la Loire, France", "city": null }, "geometry": { "type": "Point", "coordinates": [ -1.5541362, 47.2186371 ] } },
{ "type": "Feature", "properties": { "address": "Nantes, 44000;44100;44200;44300, Pays de la Loire, France", "city": null }, "geometry": { "type": "Point", "coordinates": [ -1.5541362, 47.2186371 ] } },
{ "type": "Feature", "properties": { "address": "Ciudad de México, Ciudad de México, México", "city": "Mexico City" }, "geometry": { "type": "Point", "coordinates": [ -99.1331785, 19.4326296 ] } },
{ "type": "Feature", "properties": { "address": "Warsaw, Indiana, United States", "city": "Warsaw" }, "geometry": { "type": "Point", "coordinates": [ -85.8530544, 41.2381017 ] } },
{ "type": "Feature", "properties": { "address": "Praha, Praha, Česko", "city": "Prague" }, "geometry": { "type": "Point", "coordinates": [ 14.4212535, 50.0874654 ] } },
{ "type": "Feature", "properties": { "address": "Lisbon, Iowa, United States", "city": "Lisbon" }, "geometry": { "type": "Point", "coordinates": [ -91.3854913, 41.9211165 ] } },
{ "type": "Feature", "properties": { "address": "Санкт-Петербургский государственный университет, Филологический переулок, 199034, Филологический переулок, Санкт-Петербург, Санкт-Петербург, Россия", "city": "St. Petersburg" }, "geometry": { "type": "Point", "coordinates": [ 30.2964999, 59.9406782 ] } },
{ "type": "Feature", "properties": { "address": "Roma, Lazio, Italia", "city": "Rome" }, "geometry": { "type": "Point", "coordinates": [ 12.4829321, 41.8933203 ] } },
{ "type": "Feature", "properties": { "address": "Baltimore, Maryland, United States", "city": "Baltimore" }, "geometry": { "type": "Point", "coordinates": [ -76.610759, 39.2908816 ] } },
{ "type": "Feature", "properties": { "address": "Ljubljana, 1000, Ljubljana, Slovenija", "city": "Ljubljana" }, "geometry": { "type": "Point", "coordinates": [ 14.5069289, 46.0500268 ] } },
{ "type": "Feature", "properties": { "address": "Karlsruhe, Baden-Württemberg, Deutschland", "city": "Karlsruhe" }, "geometry": { "type": "Point", "coordinates": [ 8.4034195, 49.0068705 ] } },
{ "type": "Feature", "properties": { "address": "Харків, Харківська область, Україна", "city": "Kharkiv" }, "geometry": { "type": "Point", "coordinates": [ 36.2310146, 49.9923181 ] } },
{ "type": "Feature", "properties": { "address": "Nantes, 44000;44100;44200;44300, Pays de la Loire, France", "city": null }, "geometry": { "type": "Point", "coordinates": [ -1.5541362, 47.2186371 ] } },
{ "type": "Feature", "properties": { "address": "Москва, Москва, Россия", "city": "Moscow" }, "geometry": { "type": "Point", "coordinates": [ 37.6174782, 55.7505412 ] } },
{ "type": "Feature", "properties": { "address": "京都市営地下鉄東西線, 寺町通, 604-8571, 寺町通, 京都市, 京都府, 日本", "city": "Kyoto City" }, "geometry": { "type": "Point", "coordinates": [ 135.7637102, 35.0107789 ] } },
{ "type": "Feature", "properties": { "address": "Rochester, New York, United States", "city": "Rochester" }, "geometry": { "type": "Point", "coordinates": [ -77.615214, 43.157285 ] } },
{ "type": "Feature", "properties": { "address": "Nantes, 44000;44100;44200;44300, Pays de la Loire, France", "city": null }, "geometry": { "type": "Point", "coordinates": [ -1.5541362, 47.2186371 ] } },
{ "type": "Feature", "properties": { "address": "Berkeley, California, United States", "city": "Berkeley" }, "geometry": { "type": "Point", "coordinates": [ -122.272863, 37.8708393 ] } },
{ "type": "Feature", "properties": { "address": "Livermore, California, United States", "city": "Livermore" }, "geometry": { "type": "Point", "coordinates": [ -121.768053, 37.6820583 ] } },
{ "type": "Feature", "properties": { "address": "Kaunas, Kauno apskritis, Lietuva", "city": "Kaunas" }, "geometry": { "type": "Point", "coordinates": [ 23.9044817, 54.8982139 ] } },
{ "type": "Feature", "properties": { "address": "Los Alamos, 87544, New Mexico, United States", "city": "Los Alamos" }, "geometry": { "type": "Point", "coordinates": [ -106.298959, 35.88137 ] } },
{ "type": "Feature", "properties": { "address": "Cambridge, CB2 3NR, Cambridge, England, United Kingdom", "city": "Cambridge" }, "geometry": { "type": "Point", "coordinates": [ 0.1186637, 52.2055314 ] } },
{ "type": "Feature", "properties": { "address": "TUM School of Engineering and Design, 15, Boltzmannstraße, 85748, Boltzmannstraße, Garching bei München, Bayern, Deutschland", "city": "Garching and Greifswald " }, "geometry": { "type": "Point", "coordinates": [ 11.6699378, 48.2656019 ] } },
{ "type": "Feature", "properties": { "address": "Cambridge, CB2 3NR, Cambridge, England, United Kingdom", "city": "Cambridge" }, "geometry": { "type": "Point", "coordinates": [ 0.1186637, 52.2055314 ] } },
{ "type": "Feature", "properties": { "address": "名古屋市, 愛知県, 日本", "city": "Nagoya" }, "geometry": { "type": "Point", "coordinates": [ 136.899843800000014, 35.1851045 ] } },
{ "type": "Feature", "properties": { "address": "東海市, 愛知県, 日本", "city": "Tōkai" }, "geometry": { "type": "Point", "coordinates": [ 136.9023574, 35.0228927 ] } },
{ "type": "Feature", "properties": { "address": "Ciudad de México, Ciudad de México, México", "city": "Mexico City" }, "geometry": { "type": "Point", "coordinates": [ -99.1331785, 19.4326296 ] } },
{ "type": "Feature", "properties": { "address": "Nantes, 44000;44100;44200;44300, Pays de la Loire, France", "city": null }, "geometry": { "type": "Point", "coordinates": [ -1.5541362, 47.2186371 ] } },
{ "type": "Feature", "properties": { "address": "Toki, 08-117, województwo mazowieckie, Polska", "city": "Toki" }, "geometry": { "type": "Point", "coordinates": [ 22.012806, 52.0742306 ] } },
{ "type": "Feature", "properties": { "address": "Roma, Lazio, Italia", "city": "Rome" }, "geometry": { "type": "Point", "coordinates": [ 12.4829321, 41.8933203 ] } },
{ "type": "Feature", "properties": { "address": "São José dos Campos, São Paulo, Brasil", "city": "São José dos Campos" }, "geometry": { "type": "Point", "coordinates": [ -45.8854538, -23.1867782 ] } },
{ "type": "Feature", "properties": { "address": "Москва, Москва, Россия", "city": "Moscow" }, "geometry": { "type": "Point", "coordinates": [ 37.6174782, 55.7505412 ] } },
{ "type": "Feature", "properties": { "address": "Nantes, 44000;44100;44200;44300, Pays de la Loire, France", "city": null }, "geometry": { "type": "Point", "coordinates": [ -1.5541362, 47.2186371 ] } },
{ "type": "Feature", "properties": { "address": "Oak Ridge, Tennessee, United States", "city": "Oak Ridge" }, "geometry": { "type": "Point", "coordinates": [ -84.2696449, 36.0103562 ] } },
{ "type": "Feature", "properties": { "address": "大阪市, 大阪府, 日本", "city": "Osaka" }, "geometry": { "type": "Point", "coordinates": [ 135.5014539, 34.6937569 ] } },
{ "type": "Feature", "properties": { "address": "Richland, Illinois, United States", "city": "Richland" }, "geometry": { "type": "Point", "coordinates": [ -88.0949352, 38.7060457 ] } },
{ "type": "Feature", "properties": { "address": "Turin, Iowa, United States", "city": "Turin" }, "geometry": { "type": "Point", "coordinates": [ -95.9666879, 42.0194272 ] } },
{ "type": "Feature", "properties": { "address": "Princeton, New Jersey, United States", "city": "Princeton" }, "geometry": { "type": "Point", "coordinates": [ -74.6597376, 40.3496953 ] } },
{ "type": "Feature", "properties": { "address": "Nantes, 44000;44100;44200;44300, Pays de la Loire, France", "city": null }, "geometry": { "type": "Point", "coordinates": [ -1.5541362, 47.2186371 ] } },
{ "type": "Feature", "properties": { "address": "Zagreb, Zagreb, Hrvatska", "city": "Zagreb" }, "geometry": { "type": "Point", "coordinates": [ 15.9622315, 45.8426414 ] } },
{ "type": "Feature", "properties": { "address": "Albuquerque, 87102, New Mexico, United States", "city": "Albuquerque" }, "geometry": { "type": "Point", "coordinates": [ -106.650985, 35.0841034 ] } },
{ "type": "Feature", "properties": { "address": "Aiken, South Carolina, United States", "city": "Aiken" }, "geometry": { "type": "Point", "coordinates": [ -81.6182086, 33.5723191 ] } },
{ "type": "Feature", "properties": { "address": "四川省, 中国", "city": "Sichuan" }, "geometry": { "type": "Point", "coordinates": [ 102.4999999, 30.5000001 ] } },
{ "type": "Feature", "properties": { "address": "Nantes, 44000;44100;44200;44300, Pays de la Loire, France", "city": null }, "geometry": { "type": "Point", "coordinates": [ -1.5541362, 47.2186371 ] } },
{ "type": "Feature", "properties": { "address": "Nantes, 44000;44100;44200;44300, Pays de la Loire, France", "city": null }, "geometry": { "type": "Point", "coordinates": [ -1.5541362, 47.2186371 ] } },
{ "type": "Feature", "properties": { "address": "Stony Brook, 11794, Brookhaven, New York, United States", "city": "Stony Brook" }, "geometry": { "type": "Point", "coordinates": [ -73.140943, 40.9256538 ] } },
{ "type": "Feature", "properties": { "address": "Swansea, SA1 3BN, Cymru / Wales, United Kingdom", "city": "Swansea" }, "geometry": { "type": "Point", "coordinates": [ -3.9459248, 51.6195955 ] } },
{ "type": "Feature", "properties": { "address": "Swarthmore, 19081, Pennsylvania, United States", "city": "Swarthmore" }, "geometry": { "type": "Point", "coordinates": [ -75.3499124, 39.9020565 ] } },
{ "type": "Feature", "properties": { "address": "Stockholm, 111 29, Sverige", "city": "Stockholm" }, "geometry": { "type": "Point", "coordinates": [ 18.0710935, 59.3251172 ] } },
{ "type": "Feature", "properties": { "address": "Lausanne, Vaud, Schweiz/Suisse/Svizzera/Svizra", "city": "Lausanne" }, "geometry": { "type": "Point", "coordinates": [ 6.6327025, 46.5218269 ] } },
{ "type": "Feature", "properties": { "address": "Kongens Lyngby, 2800, Region Hovedstaden, Danmark", "city": "Kongens Lyngby" }, "geometry": { "type": "Point", "coordinates": [ 12.5051413, 55.7718649 ] } },
{ "type": "Feature", "properties": { "address": "College Station, Texas, United States", "city": "College Station" }, "geometry": { "type": "Point", "coordinates": [ -96.3455991, 30.6183939 ] } },
{ "type": "Feature", "properties": { "address": "Sheffield, England, United Kingdom", "city": "Sheffield" }, "geometry": { "type": "Point", "coordinates": [ -1.4702278, 53.3806626 ] } },
{ "type": "Feature", "properties": { "address": "Nantes, 44000;44100;44200;44300, Pays de la Loire, France", "city": null }, "geometry": { "type": "Point", "coordinates": [ -1.5541362, 47.2186371 ] } },
{ "type": "Feature", "properties": { "address": "Harwell, Vale of White Horse, England, United Kingdom", "city": "Harwell" }, "geometry": { "type": "Point", "coordinates": [ -1.2909164, 51.5999743 ] } },
{ "type": "Feature", "properties": { "address": "Birmingham, B2 4AJ, Birmingham, England, United Kingdom", "city": "Birmingham" }, "geometry": { "type": "Point", "coordinates": [ -1.9026911, 52.4796992 ] } },
{ "type": "Feature", "properties": { "address": "Bonn, Nordrhein-Westfalen, Deutschland", "city": "Bonn" }, "geometry": { "type": "Point", "coordinates": [ 7.1024635, 50.7352621 ] } },
{ "type": "Feature", "properties": { "address": "Bristol, England, United Kingdom", "city": "Bristol" }, "geometry": { "type": "Point", "coordinates": [ -2.5972985, 51.4538022 ] } },
{ "type": "Feature", "properties": { "address": "Los Angeles, California, United States", "city": "Los Angeles" }, "geometry": { "type": "Point", "coordinates": [ -118.242766, 34.0536909 ] } },
{ "type": "Feature", "properties": { "address": "San Diego, California, United States", "city": "San Diego" }, "geometry": { "type": "Point", "coordinates": [ -117.162772, 32.7174202 ] } },
{ "type": "Feature", "properties": { "address": "Boulder, Colorado, United States", "city": "Boulder" }, "geometry": { "type": "Point", "coordinates": [ -105.270545, 40.0149856 ] } },
{ "type": "Feature", "properties": { "address": "Λευκωσία - Lefkoşa, 1107, Λευκωσία, Κύπρος, Κύπρος - Kıbrıs", "city": "Nicosia" }, "geometry": { "type": "Point", "coordinates": [ 33.3638783, 35.1746503 ] } },
{ "type": "Feature", "properties": { "address": "Nantes, 44000;44100;44200;44300, Pays de la Loire, France", "city": null }, "geometry": { "type": "Point", "coordinates": [ -1.5541362, 47.2186371 ] } },
{ "type": "Feature", "properties": { "address": "Houston, Texas, United States", "city": "Houston" }, "geometry": { "type": "Point", "coordinates": [ -95.3676974, 29.7589382 ] } },
{ "type": "Feature", "properties": { "address": "姫路市, 兵庫県, 日本", "city": "Himeji" }, "geometry": { "type": "Point", "coordinates": [ 134.6854793, 34.8153529 ] } },
{ "type": "Feature", "properties": { "address": "Champaign, Illinois, United States", "city": "Champaign" }, "geometry": { "type": "Point", "coordinates": [ -88.2430932, 40.1164841 ] } },
{ "type": "Feature", "properties": { "address": "Lexington, Kentucky, United States", "city": "Lexington" }, "geometry": { "type": "Point", "coordinates": [ -84.4970393, 38.0464066 ] } },
{ "type": "Feature", "properties": { "address": "Riga, 14428, New York, United States", "city": "Riga" }, "geometry": { "type": "Point", "coordinates": [ -77.883898, 43.069506 ] } },
{ "type": "Feature", "properties": { "address": "Liverpool, England, United Kingdom", "city": "Liverpool" }, "geometry": { "type": "Point", "coordinates": [ -2.9166389, 53.3933411 ] } },
{ "type": "Feature", "properties": { "address": "Manchester, M60 2TG, Manchester, England, United Kingdom", "city": "Manchester" }, "geometry": { "type": "Point", "coordinates": [ -2.2451148, 53.4794892 ] } },
{ "type": "Feature", "properties": { "address": "Baltimore, Maryland, United States", "city": "Baltimore" }, "geometry": { "type": "Point", "coordinates": [ -76.610759, 39.2908816 ] } },
{ "type": "Feature", "properties": { "address": "College Park, Maryland, United States", "city": "College Park" }, "geometry": { "type": "Point", "coordinates": [ -76.9369189, 38.980666 ] } },
{ "type": "Feature", "properties": { "address": "Milano, Lombardia, Italia", "city": "Milan" }, "geometry": { "type": "Point", "coordinates": [ 9.1896346, 45.4641943 ] } },
{ "type": "Feature", "properties": { "address": "Oxford, England, United Kingdom", "city": "Oxford" }, "geometry": { "type": "Point", "coordinates": [ -1.2578499, 51.7520131 ] } },
{ "type": "Feature", "properties": { "address": "Rochester, New York, United States", "city": "Rochester" }, "geometry": { "type": "Point", "coordinates": [ -77.615214, 43.157285 ] } },
{ "type": "Feature", "properties": { "address": "Roma, Lazio, Italia", "city": "Rome" }, "geometry": { "type": "Point", "coordinates": [ 12.4829321, 41.8933203 ] } },
{ "type": "Feature", "properties": { "address": "Saskatoon, Saskatchewan, Canada", "city": "Saskatoon" }, "geometry": { "type": "Point", "coordinates": [ -106.660767, 52.131802 ] } },
{ "type": "Feature", "properties": { "address": "合肥市, 安徽省, 中国", "city": "Hefei" }, "geometry": { "type": "Point", "coordinates": [ 117.281428, 31.8665676 ] } },
{ "type": "Feature", "properties": { "address": "Sevilla, Andalucía, España", "city": "Sevilla" }, "geometry": { "type": "Point", "coordinates": [ -5.9953403, 37.3886303 ] } },
{ "type": "Feature", "properties": { "address": "Glasgow, G2 1AL, Alba / Scotland, United Kingdom", "city": "Glasgow" }, "geometry": { "type": "Point", "coordinates": [ -4.2501687, 55.861155 ] } },
{ "type": "Feature", "properties": { "address": "Tartu, Eesti", "city": "Tartu" }, "geometry": { "type": "Point", "coordinates": [ 26.7290023, 58.3779528 ] } },
{ "type": "Feature", "properties": { "address": "Richardson, Texas, United States", "city": "Richardson" }, "geometry": { "type": "Point", "coordinates": [ -96.7297206, 32.9481789 ] } },
{ "type": "Feature", "properties": { "address": "Bunkyo, Avenida Japão, 08762-480, Avenida Japão, Mogi das Cruzes, São Paulo, Brasil", "city": " Bunkyo" }, "geometry": { "type": "Point", "coordinates": [ -46.2159414, -23.5772976 ] } },
{ "type": "Feature", "properties": { "address": "Viterbo, Lazio, Italia", "city": "Viterbo" }, "geometry": { "type": "Point", "coordinates": [ 11.9488136, 42.4929522 ] } },
{ "type": "Feature", "properties": { "address": "Seattle, Washington, United States", "city": "Seattle" }, "geometry": { "type": "Point", "coordinates": [ -122.330062, 47.6038321 ] } },
{ "type": "Feature", "properties": { "address": "Madison, Wisconsin, United States", "city": "Madison" }, "geometry": { "type": "Point", "coordinates": [ -89.3841663, 43.07469 ] } }
]
}
