{
"type": "FeatureCollection",
"name": "locations_engagement",
"crs": { "type": "name", "properties": { "name": "urn:ogc:def:crs:OGC:1.3:CRS84" } },
"features": [
{ "type": "Feature", "properties": { "address": "Saclay, 91400, Île-de-France, France", "city": "Cambridge" }, "geometry": { "type": "Point", "coordinates": [ 2.172576, 48.7305162 ] } },
{ "type": "Feature", "properties": { "address": "Erkrath, 40699, Nordrhein-Westfalen, Deutschland", "city": "(not set)" }, "geometry": { "type": "Point", "coordinates": [ 6.9056079, 51.2209866 ] } },
{ "type": "Feature", "properties": { "address": "Kansas City, Missouri, United States", "city": "Munich" }, "geometry": { "type": "Point", "coordinates": [ -94.5781416, 39.100105 ] } },
{ "type": "Feature", "properties": { "address": "Thatcham, England, United Kingdom", "city": "Kyoto" }, "geometry": { "type": "Point", "coordinates": [ -1.257412, 51.4024177 ] } },
{ "type": "Feature", "properties": { "address": "Cambridge, CB2 3NR, Cambridge, England, United Kingdom", "city": "Garching" }, "geometry": { "type": "Point", "coordinates": [ 0.1186637, 52.2055314 ] } },
{ "type": "Feature", "properties": { "address": "Philadelphia, Pennsylvania, United States", "city": "Thatcham" }, "geometry": { "type": "Point", "coordinates": [ -75.1635262, 39.9527237 ] } },
{ "type": "Feature", "properties": { "address": "Minneapolis, Minnesota, United States", "city": "Minneapolis" }, "geometry": { "type": "Point", "coordinates": [ -93.2654692, 44.9772995 ] } },
{ "type": "Feature", "properties": { "address": "Naples, Florida, United States", "city": "Manchester" }, "geometry": { "type": "Point", "coordinates": [ -81.7942944, 26.1421976 ] } },
{ "type": "Feature", "properties": { "address": "京都, 南北自由通路, 601-8002, 南北自由通路, 京都市, 京都府, 日本", "city": "London" }, "geometry": { "type": "Point", "coordinates": [ 135.758430299999986, 34.9846076 ] } },
{ "type": "Feature", "properties": { "address": "Jülich, 52428, Nordrhein-Westfalen, Deutschland", "city": "Madrid" }, "geometry": { "type": "Point", "coordinates": [ 6.3611015, 50.9220931 ] } },
{ "type": "Feature", "properties": { "address": "Madrid, Comunidad de Madrid, España", "city": "Saclay" }, "geometry": { "type": "Point", "coordinates": [ -3.703507, 40.416782 ] } },
{ "type": "Feature", "properties": { "address": "Munich, North Dakota, United States", "city": "Boston" }, "geometry": { "type": "Point", "coordinates": [ -98.832631, 48.669174 ] } },
{ "type": "Feature", "properties": { "address": "Stuttgart, Baden-Württemberg, Deutschland", "city": "Erkrath" }, "geometry": { "type": "Point", "coordinates": [ 9.1800132, 48.7784485 ] } },
{ "type": "Feature", "properties": { "address": "Chennai, Tamil Nadu, India", "city": "Julich" }, "geometry": { "type": "Point", "coordinates": [ 80.270186, 13.0836939 ] } },
{ "type": "Feature", "properties": { "address": "宁波, 19号, 南站东路, 315010, 南站东路, 宁波市, 浙江省, 中国", "city": "Kansas City" }, "geometry": { "type": "Point", "coordinates": [ 121.5326567, 29.8646327 ] } },
{ "type": "Feature", "properties": { "address": "深圳市, 广东省, 中国", "city": "Chennai" }, "geometry": { "type": "Point", "coordinates": [ 114.0545429, 22.5445741 ] } },
{ "type": "Feature", "properties": { "address": "Pistoia, Toscana, Italia", "city": "Shenzhen" }, "geometry": { "type": "Point", "coordinates": [ 10.8687081, 43.9740957 ] } },
{ "type": "Feature", "properties": { "address": "Everett, Washington, United States", "city": "Everett" }, "geometry": { "type": "Point", "coordinates": [ -122.2127011, 47.9793437 ] } },
{ "type": "Feature", "properties": { "address": "Madison, Wisconsin, United States", "city": "Philadelphia" }, "geometry": { "type": "Point", "coordinates": [ -89.3841663, 43.07469 ] } },
{ "type": "Feature", "properties": { "address": "Murfreesboro, Tennessee, United States", "city": "Shanghai" }, "geometry": { "type": "Point", "coordinates": [ -86.3921096, 35.8460396 ] } },
{ "type": "Feature", "properties": { "address": "Hendersonville, 28738, North Carolina, United States", "city": "Naples" }, "geometry": { "type": "Point", "coordinates": [ -82.4609528, 35.3187279 ] } },
{ "type": "Feature", "properties": { "address": "Garching, Münchener Straße, 85748, Münchener Straße, Garching bei München, Bayern, Deutschland", "city": "Didcot" }, "geometry": { "type": "Point", "coordinates": [ 11.652533, 48.2492852 ] } },
{ "type": "Feature", "properties": { "address": "Didcot, South Oxfordshire, England, United Kingdom", "city": "Turin" }, "geometry": { "type": "Point", "coordinates": [ -1.245999, 51.6063587 ] } },
{ "type": "Feature", "properties": { "address": "Lohne, Arendsee, Sachsen-Anhalt, Deutschland", "city": "Stuttgart" }, "geometry": { "type": "Point", "coordinates": [ 11.4758766, 52.7838208 ] } },
{ "type": "Feature", "properties": { "address": "San Francisco, California, United States", "city": "Paris" }, "geometry": { "type": "Point", "coordinates": [ -122.4075201, 37.7879363 ] } },
{ "type": "Feature", "properties": { "address": "Coventry, CV1 1LL, Coventry, England, United Kingdom", "city": "Ningbo" }, "geometry": { "type": "Point", "coordinates": [ -1.510477, 52.4081812 ] } },
{ "type": "Feature", "properties": { "address": "Wessling, Heek, Nordrhein-Westfalen, Deutschland", "city": "Framingham" }, "geometry": { "type": "Point", "coordinates": [ 7.0866595, 52.1316192 ] } },
{ "type": "Feature", "properties": { "address": "Knoxville, Tennessee, United States", "city": "Tsukuba" }, "geometry": { "type": "Point", "coordinates": [ -83.9210261, 35.9603948 ] } },
{ "type": "Feature", "properties": { "address": "Framingham, Massachusetts, United States", "city": "Kearny" }, "geometry": { "type": "Point", "coordinates": [ -71.4165905, 42.2773177 ] } },
{ "type": "Feature", "properties": { "address": "つくば市, 茨城県, 日本", "city": "Chicago" }, "geometry": { "type": "Point", "coordinates": [ 140.077279, 36.0833265 ] } },
{ "type": "Feature", "properties": { "address": "Coutances, 50200, Normandie, France", "city": "New York" }, "geometry": { "type": "Point", "coordinates": [ -1.4454857, 49.047792 ] } },
{ "type": "Feature", "properties": { "address": "Kearny, 67860, Kansas, United States", "city": "Frankfurt am Main" }, "geometry": { "type": "Point", "coordinates": [ -101.3523356, 37.9960049 ] } },
{ "type": "Feature", "properties": { "address": "Brighton, BN1 1HJ, England, United Kingdom", "city": "Pistoia" }, "geometry": { "type": "Point", "coordinates": [ -0.1400561, 50.8214626 ] } },
{ "type": "Feature", "properties": { "address": "Escanaba, 49829, Michigan, United States", "city": "Madison" }, "geometry": { "type": "Point", "coordinates": [ -87.0647434, 45.7455707 ] } },
{ "type": "Feature", "properties": { "address": "Manchester, M60 2TG, Manchester, England, United Kingdom", "city": "Murfreesboro" }, "geometry": { "type": "Point", "coordinates": [ -2.2451148, 53.4794892 ] } },
{ "type": "Feature", "properties": { "address": "Hamburg, Deutschland", "city": "Hendersonville" }, "geometry": { "type": "Point", "coordinates": [ 10.0013165, 53.5501721 ] } },
{ "type": "Feature", "properties": { "address": "Frankfurt am Main, Hessen, Deutschland", "city": "" }, "geometry": { "type": "Point", "coordinates": [ 8.6820917, 50.1106444 ] } },
{ "type": "Feature", "properties": { "address": "Turin, Iowa, United States", "city": "Somerville" }, "geometry": { "type": "Point", "coordinates": [ -95.9666879, 42.0194272 ] } },
{ "type": "Feature", "properties": { "address": "may not exist, 0300, სამცხე-ჯავახეთი, საქართველო", "city": "Lohne" }, "geometry": { "type": "Point", "coordinates": [ 42.7861927, 41.8108857 ] } },
{ "type": "Feature", "properties": { "address": "上海街道, 福州市, 福建省, 中国", "city": "Milan" }, "geometry": { "type": "Point", "coordinates": [ 119.2907523, 26.0701988 ] } },
{ "type": "Feature", "properties": { "address": "London, England, United Kingdom", "city": "Dublin" }, "geometry": { "type": "Point", "coordinates": [ -0.1277653, 51.5074456 ] } },
{ "type": "Feature", "properties": { "address": "Washington, District of Columbia, United States", "city": "Bristol" }, "geometry": { "type": "Point", "coordinates": [ -77.0363849, 38.8950982 ] } },
{ "type": "Feature", "properties": { "address": "Boston, Massachusetts, United States", "city": "San Francisco" }, "geometry": { "type": "Point", "coordinates": [ -71.0578303, 42.3588336 ] } },
{ "type": "Feature", "properties": { "address": "New York, New York, United States", "city": "Coventry" }, "geometry": { "type": "Point", "coordinates": [ -74.0060152, 40.7127281 ] } },
{ "type": "Feature", "properties": { "address": "Dortmund, Nordrhein-Westfalen, Deutschland", "city": "Wessling" }, "geometry": { "type": "Point", "coordinates": [ 7.4652789, 51.5142273 ] } },
{ "type": "Feature", "properties": { "address": "Arkadelphia, Arkansas, United States", "city": "Knoxville" }, "geometry": { "type": "Point", "coordinates": [ -93.053784, 34.1209292 ] } },
{ "type": "Feature", "properties": { "address": "Mesick, Michigan, United States", "city": "Coutances" }, "geometry": { "type": "Point", "coordinates": [ -85.713401, 44.405282 ] } },
{ "type": "Feature", "properties": { "address": "Leoben, 8700, Steiermark, Österreich", "city": "Newark" }, "geometry": { "type": "Point", "coordinates": [ 15.0947756, 47.3805128 ] } },
{ "type": "Feature", "properties": { "address": "Dresden, Sachsen, Deutschland", "city": "Brighton" }, "geometry": { "type": "Point", "coordinates": [ 13.7381437, 51.0493286 ] } },
{ "type": "Feature", "properties": { "address": "Barranquilla, Atlántico, Colombia", "city": "Escanaba" }, "geometry": { "type": "Point", "coordinates": [ -74.7926118, 10.9938599 ] } },
{ "type": "Feature", "properties": { "address": "広島市, 広島県, 日本", "city": "Hamburg" }, "geometry": { "type": "Point", "coordinates": [ 132.451758899999987, 34.3917241 ] } },
{ "type": "Feature", "properties": { "address": "Milano, Lombardia, Italia", "city": "San Diego" }, "geometry": { "type": "Point", "coordinates": [ 9.1896346, 45.4641943 ] } },
{ "type": "Feature", "properties": { "address": "Bangor, 04401, Maine, United States", "city": "Fall River" }, "geometry": { "type": "Point", "coordinates": [ -68.7713289, 44.8016255 ] } },
{ "type": "Feature", "properties": { "address": "Bristol, England, United Kingdom", "city": "Washington" }, "geometry": { "type": "Point", "coordinates": [ -2.5972985, 51.4538022 ] } },
{ "type": "Feature", "properties": { "address": "Canajoharie, 13317, New York, United States", "city": "Dortmund" }, "geometry": { "type": "Point", "coordinates": [ -74.5723964, 42.9054292 ] } },
{ "type": "Feature", "properties": { "address": "Eindhoven, Noord-Brabant, Nederland", "city": "Arkadelphia" }, "geometry": { "type": "Point", "coordinates": [ 5.478633, 51.4392648 ] } },
{ "type": "Feature", "properties": { "address": "Inglis, Florida, United States", "city": "Mesick" }, "geometry": { "type": "Point", "coordinates": [ -82.6687161, 29.0302514 ] } },
{ "type": "Feature", "properties": { "address": "Fall River, Massachusetts, United States", "city": "Leoben" }, "geometry": { "type": "Point", "coordinates": [ -71.1546367, 41.7010642 ] } },
{ "type": "Feature", "properties": { "address": null, "city": "Dresden" }, "geometry": null },
{ "type": "Feature", "properties": { "address": "Newark, New Jersey, United States", "city": "Barranquilla" }, "geometry": { "type": "Point", "coordinates": [ -74.1723667, 40.735657 ] } },
{ "type": "Feature", "properties": { "address": "Chicago, Illinois, United States", "city": "Hiroshima" }, "geometry": { "type": "Point", "coordinates": [ -87.6244212, 41.8755616 ] } },
{ "type": "Feature", "properties": { "address": "Dublin, Éire / Ireland", "city": "Bangor" }, "geometry": { "type": "Point", "coordinates": [ -6.2605593, 53.3493795 ] } },
{ "type": "Feature", "properties": { "address": "Breda, Noord-Brabant, Nederland", "city": "Canajoharie" }, "geometry": { "type": "Point", "coordinates": [ 4.7760237, 51.5887845 ] } },
{ "type": "Feature", "properties": { "address": "Reston, 20192, Virginia, United States", "city": "Eindhoven" }, "geometry": { "type": "Point", "coordinates": [ -77.3585955, 38.9587514 ] } },
{ "type": "Feature", "properties": { "address": "天津, 海河广场, 300010, 海河广场, 河北区, 天津, 中国", "city": "Inglis" }, "geometry": { "type": "Point", "coordinates": [ 117.2036841, 39.1357517 ] } },
{ "type": "Feature", "properties": { "address": "Princeton, New Jersey, United States", "city": "Oxford" }, "geometry": { "type": "Point", "coordinates": [ -74.6597376, 40.3496953 ] } },
{ "type": "Feature", "properties": { "address": "Magee, 39111, Mississippi, United States", "city": "Tehran" }, "geometry": { "type": "Point", "coordinates": [ -89.7323162, 31.8724469 ] } },
{ "type": "Feature", "properties": { "address": "San Diego, California, United States", "city": "Cologne" }, "geometry": { "type": "Point", "coordinates": [ -117.162772, 32.7174202 ] } },
{ "type": "Feature", "properties": { "address": "Somerville, Massachusetts, United States", "city": "Breda" }, "geometry": { "type": "Point", "coordinates": [ -71.0994968, 42.3875968 ] } },
{ "type": "Feature", "properties": { "address": "Paris, Île-de-France, France", "city": "Reston" }, "geometry": { "type": "Point", "coordinates": [ 2.3483915, 48.8534951 ] } },
{ "type": "Feature", "properties": { "address": "Edlesborough, England, United Kingdom", "city": "Tianjin" }, "geometry": { "type": "Point", "coordinates": [ -0.5852479, 51.8663877 ] } },
{ "type": "Feature", "properties": { "address": "Oldham, Texas, United States", "city": "Princeton" }, "geometry": { "type": "Point", "coordinates": [ -102.6193428, 35.3907651 ] } },
{ "type": "Feature", "properties": { "address": "Toki, 08-117, województwo mazowieckie, Polska", "city": "Magee" }, "geometry": { "type": "Point", "coordinates": [ 22.012806, 52.0742306 ] } },
{ "type": "Feature", "properties": { "address": "Three Rivers, 78071, Texas, United States", "city": "Los Angeles" }, "geometry": { "type": "Point", "coordinates": [ -98.1809755, 28.4647614 ] } },
{ "type": "Feature", "properties": { "address": "Dallas, Texas, United States", "city": "Edlesborough" }, "geometry": { "type": "Point", "coordinates": [ -96.7968559, 32.7762719 ] } },
{ "type": "Feature", "properties": { "address": "Vitoria-Gasteiz, 01001, Euskadi, España", "city": "Oldham" }, "geometry": { "type": "Point", "coordinates": [ -2.6724025, 42.8465088 ] } },
{ "type": "Feature", "properties": { "address": "تهران, استان تهران, ایران", "city": "Moscow" }, "geometry": { "type": "Point", "coordinates": [ 51.3896004, 35.6892523 ] } },
{ "type": "Feature", "properties": { "address": "New Haven, Connecticut, United States", "city": "Toki" }, "geometry": { "type": "Point", "coordinates": [ -72.9250518, 41.3082138 ] } },
{ "type": "Feature", "properties": { "address": "Villeurbanne, 69100, Auvergne-Rhône-Alpes, France", "city": "Three Rivers" }, "geometry": { "type": "Point", "coordinates": [ 4.8796267, 45.7660581 ] } },
{ "type": "Feature", "properties": { "address": "Cologne, 32430, Occitanie, France", "city": "Dallas" }, "geometry": { "type": "Point", "coordinates": [ 0.9774958, 43.7218277 ] } },
{ "type": "Feature", "properties": { "address": "Windsor, N9A 3A8, Ontario, Canada", "city": "Amsterdam" }, "geometry": { "type": "Point", "coordinates": [ -83.0373389, 42.3167397 ] } },
{ "type": "Feature", "properties": { "address": "Martha Lake, Alderwood Manor, Washington, United States", "city": "Metter" }, "geometry": { "type": "Point", "coordinates": [ -122.2363702, 47.8518945 ] } },
{ "type": "Feature", "properties": { "address": "Reading, England, United Kingdom", "city": "Shizuoka" }, "geometry": { "type": "Point", "coordinates": [ -0.9700664, 51.4564242 ] } },
{ "type": "Feature", "properties": { "address": "Eden Prairie, Minnesota, United States", "city": "Vitoria-Gasteiz" }, "geometry": { "type": "Point", "coordinates": [ -93.470786, 44.8546856 ] } },
{ "type": "Feature", "properties": { "address": "Fort Gregg-Adams, 23801, Fort Gregg-Adams, Virginia, United States", "city": "New Haven" }, "geometry": { "type": "Point", "coordinates": [ -77.3305507, 37.2354475 ] } },
{ "type": "Feature", "properties": { "address": "Échirolles, 38130, Auvergne-Rhône-Alpes, France", "city": "Villeurbanne" }, "geometry": { "type": "Point", "coordinates": [ 5.718687, 45.1481694 ] } },
{ "type": "Feature", "properties": { "address": "Blagnac, 31700, Occitanie, France", "city": "Ashburn" }, "geometry": { "type": "Point", "coordinates": [ 1.3986403, 43.6343476 ] } },
{ "type": "Feature", "properties": { "address": "Москва, Москва, Россия", "city": "Windsor" }, "geometry": { "type": "Point", "coordinates": [ 37.6174782, 55.7505412 ] } },
{ "type": "Feature", "properties": { "address": "Tewkesbury, Tewkesbury, England, United Kingdom", "city": "Martha Lake" }, "geometry": { "type": "Point", "coordinates": [ -2.1549574, 51.9937857 ] } },
{ "type": "Feature", "properties": { "address": "Metter, 30439, Georgia, United States", "city": "Albuquerque" }, "geometry": { "type": "Point", "coordinates": [ -82.0601196, 32.397118 ] } },
{ "type": "Feature", "properties": { "address": "静岡市, 420-8602, 静岡県, 日本", "city": "Reading" }, "geometry": { "type": "Point", "coordinates": [ 138.3831697, 34.9751974 ] } },
{ "type": "Feature", "properties": { "address": "Manila, Metro Manila, Philippines", "city": "Eden Prairie" }, "geometry": { "type": "Point", "coordinates": [ 120.9803621, 14.5904492 ] } },
{ "type": "Feature", "properties": { "address": "Oxford, England, United Kingdom", "city": "Fort Gregg-Adams" }, "geometry": { "type": "Point", "coordinates": [ -1.2578499, 51.7520131 ] } },
{ "type": "Feature", "properties": { "address": "Los Angeles, California, United States", "city": "Echirolles" }, "geometry": { "type": "Point", "coordinates": [ -118.242766, 34.0536909 ] } },
{ "type": "Feature", "properties": { "address": "Ocracoke, 27960, North Carolina, United States", "city": "Blagnac" }, "geometry": { "type": "Point", "coordinates": [ -75.9809118, 35.1145966 ] } },
{ "type": "Feature", "properties": { "address": "Elma Center, 14059, New York, United States", "city": "Tewkesbury" }, "geometry": { "type": "Point", "coordinates": [ -78.636138, 42.8297816 ] } },
{ "type": "Feature", "properties": { "address": "Seaford, 19973, Delaware, United States", "city": "Manila" }, "geometry": { "type": "Point", "coordinates": [ -75.6114584, 38.6413452 ] } },
{ "type": "Feature", "properties": { "address": "Burlington, Vermont, United States", "city": "Bath" }, "geometry": { "type": "Point", "coordinates": [ -73.212906, 44.4761601 ] } },
{ "type": "Feature", "properties": { "address": "Albuquerque, 87102, New Mexico, United States", "city": "Ocracoke" }, "geometry": { "type": "Point", "coordinates": [ -106.650985, 35.0841034 ] } },
{ "type": "Feature", "properties": { "address": "Barcelona, Catalunya, España", "city": "Elma Center" }, "geometry": { "type": "Point", "coordinates": [ 2.177073, 41.3825802 ] } },
{ "type": "Feature", "properties": { "address": "Jakobsberg, Ynglingavägen, 177 57, Ynglingavägen, Järfälla, Sverige", "city": "Seaford" }, "geometry": { "type": "Point", "coordinates": [ 17.8332125, 59.4235666 ] } },
{ "type": "Feature", "properties": { "address": "Eagan, Minnesota, United States", "city": "Burlington" }, "geometry": { "type": "Point", "coordinates": [ -93.1659179, 44.818173 ] } },
{ "type": "Feature", "properties": { "address": "北九州市, 福岡県, 日本", "city": "North Augusta" }, "geometry": { "type": "Point", "coordinates": [ 130.8749015, 33.8829996 ] } },
{ "type": "Feature", "properties": { "address": "Utrecht, Utrecht, Nederland", "city": "Barcelona" }, "geometry": { "type": "Point", "coordinates": [ 5.1215634, 52.0907006 ] } },
{ "type": "Feature", "properties": { "address": "Vetralla, Lazio, Italia", "city": "Jakobsberg" }, "geometry": { "type": "Point", "coordinates": [ 12.0575, 42.3205336 ] } },
{ "type": "Feature", "properties": { "address": "Wheatland, Montana, United States", "city": "Eagan" }, "geometry": { "type": "Point", "coordinates": [ -109.8498047, 46.4335302 ] } },
{ "type": "Feature", "properties": { "address": "Gieres, Grand' Rue, 38610, Grand' Rue, Gières, Auvergne-Rhône-Alpes, France", "city": "Kitakyushu" }, "geometry": { "type": "Point", "coordinates": [ 5.7904829, 45.1817744 ] } },
{ "type": "Feature", "properties": { "address": "Stratford-upon-Avon, Stratford-on-Avon, England, United Kingdom", "city": "Utrecht" }, "geometry": { "type": "Point", "coordinates": [ -1.70634, 52.1927803 ] } },
{ "type": "Feature", "properties": { "address": "Bath, England, United Kingdom", "city": "Oslo Municipality" }, "geometry": { "type": "Point", "coordinates": [ -2.3596963, 51.3813864 ] } },
{ "type": "Feature", "properties": { "address": "Montreal, 65591, Missouri, United States", "city": "Vetralla" }, "geometry": { "type": "Point", "coordinates": [ -92.5921247, 37.9689254 ] } },
{ "type": "Feature", "properties": { "address": "Tiranë, 1001-1028, Shqipëria Qendrore, Shqipëria", "city": "Wheatland" }, "geometry": { "type": "Point", "coordinates": [ 19.8184435, 41.3281482 ] } },
{ "type": "Feature", "properties": { "address": "Gradignan, 33170, Nouvelle-Aquitaine, France", "city": "Gieres" }, "geometry": { "type": "Point", "coordinates": [ -0.613907, 44.7739701 ] } },
{ "type": "Feature", "properties": { "address": "Livorno, Toscana, Italia", "city": "Stratford-upon-Avon" }, "geometry": { "type": "Point", "coordinates": [ 10.3402239, 42.7902379 ] } },
{ "type": "Feature", "properties": { "address": "North Augusta, 29841, South Carolina, United States", "city": "Montreal" }, "geometry": { "type": "Point", "coordinates": [ -81.9705909, 33.4943487 ] } },
{ "type": "Feature", "properties": { "address": "Malone, Malone, New York, United States", "city": "Guangzhou" }, "geometry": { "type": "Point", "coordinates": [ -74.295044, 44.84881 ] } },
{ "type": "Feature", "properties": { "address": "Tokai, Cape Town, Western Cape, South Africa", "city": "Tirana" }, "geometry": { "type": "Point", "coordinates": [ 18.4416667, -34.0608333 ] } },
{ "type": "Feature", "properties": { "address": "Ashburn, 31714, Georgia, United States", "city": "Gradignan" }, "geometry": { "type": "Point", "coordinates": [ -83.6535591, 31.7059751 ] } },
{ "type": "Feature", "properties": { "address": "Leeds, LS1 6AL, Leeds, England, United Kingdom", "city": "Virginia Beach" }, "geometry": { "type": "Point", "coordinates": [ -1.5437941, 53.7974185 ] } },
{ "type": "Feature", "properties": { "address": "珠海, 519000, 珠海市, 广东省, 中国", "city": "Livorno" }, "geometry": { "type": "Point", "coordinates": [ 113.5439406, 22.2180959 ] } },
{ "type": "Feature", "properties": { "address": "Riga, 14428, New York, United States", "city": "Hangzhou" }, "geometry": { "type": "Point", "coordinates": [ -77.883898, 43.069506 ] } },
{ "type": "Feature", "properties": { "address": "Seattle, Washington, United States", "city": "Malone" }, "geometry": { "type": "Point", "coordinates": [ -122.330062, 47.6038321 ] } },
{ "type": "Feature", "properties": { "address": "Lyon, Auvergne-Rhône-Alpes, France", "city": "Tokai" }, "geometry": { "type": "Point", "coordinates": [ 4.8320114, 45.7578137 ] } },
{ "type": "Feature", "properties": { "address": "New Ellenton, 29809, South Carolina, United States", "city": "Leeds" }, "geometry": { "type": "Point", "coordinates": [ -81.6856654, 33.421531 ] } },
{ "type": "Feature", "properties": { "address": "Amsterdam, Noord-Holland, Nederland", "city": "Qingdao" }, "geometry": { "type": "Point", "coordinates": [ 4.8924534, 52.3730796 ] } },
{ "type": "Feature", "properties": { "address": "Kilmarnock, KA1 1HZ, Alba / Scotland, United Kingdom", "city": "Zhuhai" }, "geometry": { "type": "Point", "coordinates": [ -4.4964652, 55.6100589 ] } },
{ "type": "Feature", "properties": { "address": "北京市, 中国", "city": "Lyon" }, "geometry": { "type": "Point", "coordinates": [ 116.3912972, 39.9057136 ] } },
{ "type": "Feature", "properties": { "address": "Oslo Beach, 4240, Hibiscus Coast Local Municipality, KwaZulu-Natal, South Africa", "city": "New Ellenton" }, "geometry": { "type": "Point", "coordinates": [ 30.4408333, -30.7633333 ] } },
{ "type": "Feature", "properties": { "address": "Virginia Beach, Virginia, United States", "city": "Riga" }, "geometry": { "type": "Point", "coordinates": [ -75.9760751, 36.8496579 ] } },
{ "type": "Feature", "properties": { "address": "博尔塔拉蒙古自治州 ᠪᠣᠷᠣᠲᠠᠯ᠎ᠠ ᠶᠢᠨ ᠮᠣᠩᠭᠣᠯ ᠥᠪᠡᠷᠲᠡᠭᠡᠨ ᠵᠠᠰᠠᠬᠤ ᠵᠧᠦ, 833404, 新疆维吾尔自治区 شىنجاڭ ئۇيغۇر ئاپتونوم رايونی, 中国", "city": "Seattle" }, "geometry": { "type": "Point", "coordinates": [ 82.0629703, 44.904806 ] } },
{ "type": "Feature", "properties": { "address": "East Liverpool, Ohio, United States", "city": "Beijing" }, "geometry": { "type": "Point", "coordinates": [ -80.5772928, 40.6186756 ] } },
{ "type": "Feature", "properties": { "address": "Nanterre, 92000, Île-de-France, France", "city": "Kilmarnock" }, "geometry": { "type": "Point", "coordinates": [ 2.2071267, 48.8924273 ] } },
{ "type": "Feature", "properties": { "address": "勝浦市, 千葉県, 日本", "city": "Bayingolin Mongol Autonomous Prefecture" }, "geometry": { "type": "Point", "coordinates": [ 140.3207449, 35.1521846 ] } },
{ "type": "Feature", "properties": { "address": "青岛市, 266000, 山东省, 中国", "city": "East Liverpool" }, "geometry": { "type": "Point", "coordinates": [ 120.3777659, 36.0663249 ] } },
{ "type": "Feature", "properties": { "address": "Naperville, Illinois, United States", "city": "Nanterre" }, "geometry": { "type": "Point", "coordinates": [ -88.1479278, 41.7728699 ] } },
{ "type": "Feature", "properties": { "address": "杭州市, 浙江省, 中国", "city": "Katsuura" }, "geometry": { "type": "Point", "coordinates": [ 120.2052342, 30.2489634 ] } },
{ "type": "Feature", "properties": { "address": "Singapore, Singapore", "city": "North Fort Myers" }, "geometry": { "type": "Point", "coordinates": [ 103.8194992, 1.357107 ] } },
{ "type": "Feature", "properties": { "address": "Fitchburg, 01420, Massachusetts, United States", "city": "Suzhou" }, "geometry": { "type": "Point", "coordinates": [ -71.8038268, 42.5838984 ] } },
{ "type": "Feature", "properties": { "address": "Geneva, Alabama, United States", "city": "College Station" }, "geometry": { "type": "Point", "coordinates": [ -85.803014, 31.0862933 ] } },
{ "type": "Feature", "properties": { "address": "North Charleston, South Carolina, United States", "city": "Naperville" }, "geometry": { "type": "Point", "coordinates": [ -79.9748103, 32.8546197 ] } },
{ "type": "Feature", "properties": { "address": "广州, 159, 环市西路, 510010, 环市西路, 广州市, 广东省, 中国", "city": "Fitchburg" }, "geometry": { "type": "Point", "coordinates": [ 113.2522641, 23.1526233 ] } },
{ "type": "Feature", "properties": { "address": "North Fort Myers, 33903, Florida, United States", "city": "Geneva" }, "geometry": { "type": "Point", "coordinates": [ -81.8840848, 26.6728666 ] } },
{ "type": "Feature", "properties": { "address": "苏州市, 江苏省, 中国", "city": "North Charleston" }, "geometry": { "type": "Point", "coordinates": [ 120.6212881, 31.311123 ] } },
{ "type": "Feature", "properties": { "address": "榆林市, 陕西省, 中国", "city": "Singapore" }, "geometry": { "type": "Point", "coordinates": [ 109.7290052, 38.2851459 ] } },
{ "type": "Feature", "properties": { "address": "日立製作所, 259-1304, 秦野市, 神奈川県, 日本", "city": "Hitachi" }, "geometry": { "type": "Point", "coordinates": [ 139.193618500000014, 35.3802138 ] } },
{ "type": "Feature", "properties": { "address": "College Station, Texas, United States", "city": "Yulin" }, "geometry": { "type": "Point", "coordinates": [ -96.3455991, 30.6183939 ] } },
{ "type": "Feature", "properties": { "address": "Addis Ababa Bole International Airport, Bole 2_352 Street, 1044, Bole 2_352 Street, Adis Ababa, ኣዲስ ኣበባ / Addis Ababa, ኢትዮጵያ", "city": "Addis Ababa" }, "geometry": { "type": "Point", "coordinates": [ 38.7965793, 8.9791887 ] } },
{ "type": "Feature", "properties": { "address": "Fort Wayne, Indiana, United States", "city": "Fort Wayne" }, "geometry": { "type": "Point", "coordinates": [ -85.1386015, 41.0799898 ] } },
{ "type": "Feature", "properties": { "address": "West Point, Cullum Road, 10997, Cullum Road, West Point, NY, United States", "city": "West Point" }, "geometry": { "type": "Point", "coordinates": [ -73.9550092, 41.3951027 ] } },
{ "type": "Feature", "properties": { "address": "小山市, 栃木県, 日本", "city": "Oyama" }, "geometry": { "type": "Point", "coordinates": [ 139.8006952, 36.315537 ] } },
{ "type": "Feature", "properties": { "address": "Shinjuku City Area Map, 西口地下広場, 160-0023, 西口地下広場, 東京都, 日本", "city": "Shinjuku City" }, "geometry": { "type": "Point", "coordinates": [ 139.6982495, 35.6903294 ] } },
{ "type": "Feature", "properties": { "address": "Bochum, Nordrhein-Westfalen, Deutschland", "city": "Bochum" }, "geometry": { "type": "Point", "coordinates": [ 7.2196635, 51.4818111 ] } },
{ "type": "Feature", "properties": { "address": "Bothell, Washington, United States", "city": "Bothell" }, "geometry": { "type": "Point", "coordinates": [ -122.2054035, 47.7623204 ] } },
{ "type": "Feature", "properties": { "address": "Bruxelles - Brussel, Région de Bruxelles-Capitale - Brussels Hoofdstedelijk Gewest, België / Belgique / Belgien", "city": "Brussels" }, "geometry": { "type": "Point", "coordinates": [ 4.352493, 50.8467372 ] } },
{ "type": "Feature", "properties": { "address": "Buena Vista, Iowa, United States", "city": "Buena Vista" }, "geometry": { "type": "Point", "coordinates": [ -95.1127525, 42.7445814 ] } },
{ "type": "Feature", "properties": { "address": "Cardiff, CF10 2AF, Cymru / Wales, United Kingdom", "city": "Cardiff" }, "geometry": { "type": "Point", "coordinates": [ -3.1791934, 51.4816546 ] } },
{ "type": "Feature", "properties": { "address": "Catskill, New York, United States", "city": "Catskill" }, "geometry": { "type": "Point", "coordinates": [ -73.8645734, 42.2173102 ] } },
{ "type": "Feature", "properties": { "address": "成都, 站北西横街, 610084, 站北西横街, 成都市, 四川省, 中国", "city": "Chengdu" }, "geometry": { "type": "Point", "coordinates": [ 104.0708278, 30.7001324 ] } },
{ "type": "Feature", "properties": { "address": "Columbus, Ohio, United States", "city": "Columbus" }, "geometry": { "type": "Point", "coordinates": [ -83.0007065, 39.9622601 ] } },
{ "type": "Feature", "properties": { "address": "Des Moines, Iowa, United States", "city": "Des Moines" }, "geometry": { "type": "Point", "coordinates": [ -93.6249494, 41.5868654 ] } },
{ "type": "Feature", "properties": { "address": "Eynsham, West Oxfordshire, England, United Kingdom", "city": "Eynsham" }, "geometry": { "type": "Point", "coordinates": [ -1.3826102, 51.7815319 ] } },
{ "type": "Feature", "properties": { "address": "Grand Ledge, Michigan, United States", "city": "Grand Ledge" }, "geometry": { "type": "Point", "coordinates": [ -84.7463572, 42.7524401 ] } },
{ "type": "Feature", "properties": { "address": "Kenedy, Texas, United States", "city": "Kenedy" }, "geometry": { "type": "Point", "coordinates": [ -97.7461361, 26.9205171 ] } },
{ "type": "Feature", "properties": { "address": "兰州, 兰州站站前广场, 730001, 兰州站站前广场, 城关区, 甘肃省, 中国", "city": "Lanzhou" }, "geometry": { "type": "Point", "coordinates": [ 103.8485056, 36.034178 ] } },
{ "type": "Feature", "properties": { "address": "Le Plessis-Robinson, 92350, Île-de-France, France", "city": "Le Plessis-Robinson" }, "geometry": { "type": "Point", "coordinates": [ 2.2619632, 48.7811049 ] } },
{ "type": "Feature", "properties": { "address": "Livermore, California, United States", "city": "Livermore" }, "geometry": { "type": "Point", "coordinates": [ -121.768053, 37.6820583 ] } },
{ "type": "Feature", "properties": { "address": "Manning, Iowa, United States", "city": "Manning" }, "geometry": { "type": "Point", "coordinates": [ -95.0650571, 41.9092293 ] } },
{ "type": "Feature", "properties": { "address": "Moses Lake, 98837, Washington, United States", "city": "Moses Lake" }, "geometry": { "type": "Point", "coordinates": [ -119.278077, 47.1301417 ] } },
{ "type": "Feature", "properties": { "address": "Newport News, Virginia, United States", "city": "Newport News" }, "geometry": { "type": "Point", "coordinates": [ -76.42977, 36.9775016 ] } },
{ "type": "Feature", "properties": { "address": "Niihama, Tampere, Pirkanmaa, Suomi", "city": "Niihama" }, "geometry": { "type": "Point", "coordinates": [ 23.8765423, 61.5164738 ] } },
{ "type": "Feature", "properties": { "address": "North Bergen, New Jersey, United States", "city": "North Bergen" }, "geometry": { "type": "Point", "coordinates": [ -74.012084, 40.8042674 ] } },
{ "type": "Feature", "properties": { "address": "Rawalpindi, Bennetts Road, B8 1QH, Bennetts Road, Birmingham, England, United Kingdom", "city": "Rawalpindi" }, "geometry": { "type": "Point", "coordinates": [ -1.8530207, 52.4956838 ] } },
{ "type": "Feature", "properties": { "address": "San Antonio, Texas, United States", "city": "San Antonio" }, "geometry": { "type": "Point", "coordinates": [ -98.4951405, 29.4246002 ] } },
{ "type": "Feature", "properties": { "address": "San Jose, California, United States", "city": "San Jose" }, "geometry": { "type": "Point", "coordinates": [ -121.890591, 37.3361663 ] } },
{ "type": "Feature", "properties": { "address": "士幌町, 北海道, 日本", "city": "Shihoro" }, "geometry": { "type": "Point", "coordinates": [ 143.2418046, 43.1681995 ] } },
{ "type": "Feature", "properties": { "address": "Suttons Bay Township, Michigan, United States", "city": "Suttons Bay" }, "geometry": { "type": "Point", "coordinates": [ -85.658981, 45.020146 ] } },
{ "type": "Feature", "properties": { "address": "Swanzey, New Hampshire, United States", "city": "Swanzey" }, "geometry": { "type": "Point", "coordinates": [ -72.3290406, 42.8723464 ] } },
{ "type": "Feature", "properties": { "address": "Den Haag, Zuid-Holland, Nederland", "city": "The Hague" }, "geometry": { "type": "Point", "coordinates": [ 4.3113461, 52.0799838 ] } },
{ "type": "Feature", "properties": { "address": "Toba, Koloriang, Arunachal Pradesh, India", "city": "Toba" }, "geometry": { "type": "Point", "coordinates": [ 93.2907437, 27.9156223 ] } }
]
}
