{
"type": "FeatureCollection",
"name": "locations_users",
"crs": { "type": "name", "properties": { "name": "urn:ogc:def:crs:OGC:1.3:CRS84" } },
"features": [
{ "type": "Feature", "properties": { "address": "Phoenix, Arizona, United States", "city": null }, "geometry": { "type": "Point", "coordinates": [ -112.074141, 33.4484367 ] } },
{ "type": "Feature", "properties": { "address": "Des Moines, Iowa, United States", "city": "Phoenix" }, "geometry": { "type": "Point", "coordinates": [ -93.6249494, 41.5868654 ] } },
{ "type": "Feature", "properties": { "address": "Boydton, Virginia, United States", "city": "Des Moines" }, "geometry": { "type": "Point", "coordinates": [ -78.3882002, 36.6673066 ] } },
{ "type": "Feature", "properties": { "address": "Moses Lake, 98837, Washington, United States", "city": "Boydton" }, "geometry": { "type": "Point", "coordinates": [ -119.278077, 47.1301417 ] } },
{ "type": "Feature", "properties": { "address": "San Jose, California, United States", "city": "Moses Lake" }, "geometry": { "type": "Point", "coordinates": [ -121.890591, 37.3361663 ] } },
{ "type": "Feature", "properties": { "address": "Cheyenne, Wyoming, United States", "city": "Cheyenne" }, "geometry": { "type": "Point", "coordinates": [ -104.820246, 41.139981 ] } },
{ "type": "Feature", "properties": { "address": "Chicago, Illinois, United States", "city": "San Jose" }, "geometry": { "type": "Point", "coordinates": [ -87.6244212, 41.8755616 ] } },
{ "type": "Feature", "properties": { "address": "San Antonio, Texas, United States", "city": "San Antonio" }, "geometry": { "type": "Point", "coordinates": [ -98.4951405, 29.4246002 ] } },
{ "type": "Feature", "properties": { "address": "Cambridge, CB2 3NR, Cambridge, England, United Kingdom", "city": "Chicago" }, "geometry": { "type": "Point", "coordinates": [ 0.1186637, 52.2055314 ] } },
{ "type": "Feature", "properties": { "address": "London, England, United Kingdom", "city": "Cambridge" }, "geometry": { "type": "Point", "coordinates": [ -0.1277653, 51.5074456 ] } },
{ "type": "Feature", "properties": { "address": "Paris, Île-de-France, France", "city": "Paris" }, "geometry": { "type": "Point", "coordinates": [ 2.3483915, 48.8534951 ] } },
{ "type": "Feature", "properties": { "address": "Manchester, M60 2TG, Manchester, England, United Kingdom", "city": "Shanghai" }, "geometry": { "type": "Point", "coordinates": [ -2.2451148, 53.4794892 ] } },
{ "type": "Feature", "properties": { "address": "上海街道, 福州市, 福建省, 中国", "city": "London" }, "geometry": { "type": "Point", "coordinates": [ 119.2907523, 26.0701988 ] } },
{ "type": "Feature", "properties": { "address": "Bruxelles - Brussel, Région de Bruxelles-Capitale - Brussels Hoofdstedelijk Gewest, België / Belgique / Belgien", "city": "Manchester" }, "geometry": { "type": "Point", "coordinates": [ 4.352493, 50.8467372 ] } },
{ "type": "Feature", "properties": { "address": "Munich, North Dakota, United States", "city": "Leoben" }, "geometry": { "type": "Point", "coordinates": [ -98.832631, 48.669174 ] } },
{ "type": "Feature", "properties": { "address": "Cardiff, CF10 2AF, Cymru / Wales, United Kingdom", "city": "Brussels" }, "geometry": { "type": "Point", "coordinates": [ -3.1791934, 51.4816546 ] } },
{ "type": "Feature", "properties": { "address": "Frankfurt am Main, Hessen, Deutschland", "city": "Cardiff" }, "geometry": { "type": "Point", "coordinates": [ 8.6820917, 50.1106444 ] } },
{ "type": "Feature", "properties": { "address": "Milano, Lombardia, Italia", "city": "Chengdu" }, "geometry": { "type": "Point", "coordinates": [ 9.1896346, 45.4641943 ] } },
{ "type": "Feature", "properties": { "address": "Oxford, England, United Kingdom", "city": "Guangzhou" }, "geometry": { "type": "Point", "coordinates": [ -1.2578499, 51.7520131 ] } },
{ "type": "Feature", "properties": { "address": "Council Bluffs, Iowa, United States", "city": "Hong Kong" }, "geometry": { "type": "Point", "coordinates": [ -95.8519484, 41.258841 ] } },
{ "type": "Feature", "properties": { "address": "广州, 159, 环市西路, 510010, 环市西路, 广州市, 广东省, 中国", "city": "Karlsruhe" }, "geometry": { "type": "Point", "coordinates": [ 113.2522641, 23.1526233 ] } },
{ "type": "Feature", "properties": { "address": "香港 Hong Kong, 中国", "city": "Munich" }, "geometry": { "type": "Point", "coordinates": [ 114.1628907, 22.2792968 ] } },
{ "type": "Feature", "properties": { "address": "Madrid, Comunidad de Madrid, España", "city": "Saclay" }, "geometry": { "type": "Point", "coordinates": [ -3.703507, 40.416782 ] } },
{ "type": "Feature", "properties": { "address": "Ashburn, 31714, Georgia, United States", "city": "Tsukuba" }, "geometry": { "type": "Point", "coordinates": [ -83.6535591, 31.7059751 ] } },
{ "type": "Feature", "properties": { "address": "Singapore, Singapore", "city": "Turin" }, "geometry": { "type": "Point", "coordinates": [ 103.8194992, 1.357107 ] } },
{ "type": "Feature", "properties": { "address": "Bristol, England, United Kingdom", "city": "" }, "geometry": { "type": "Point", "coordinates": [ -2.5972985, 51.4538022 ] } },
{ "type": "Feature", "properties": { "address": "成都, 站北西横街, 610084, 站北西横街, 成都市, 四川省, 中国", "city": "Amsterdam" }, "geometry": { "type": "Point", "coordinates": [ 104.0708278, 30.7001324 ] } },
{ "type": "Feature", "properties": { "address": "Garching, Münchener Straße, 85748, Münchener Straße, Garching bei München, Bayern, Deutschland", "city": "Ashburn" }, "geometry": { "type": "Point", "coordinates": [ 11.652533, 48.2492852 ] } },
{ "type": "Feature", "properties": { "address": "Karlsruhe, Baden-Württemberg, Deutschland", "city": "Berlin" }, "geometry": { "type": "Point", "coordinates": [ 8.4034195, 49.0068705 ] } },
{ "type": "Feature", "properties": { "address": "Leoben, 8700, Steiermark, Österreich", "city": "Council Bluffs" }, "geometry": { "type": "Point", "coordinates": [ 15.0947756, 47.3805128 ] } },
{ "type": "Feature", "properties": { "address": "Los Angeles, California, United States", "city": "Los Angeles" }, "geometry": { "type": "Point", "coordinates": [ -118.242766, 34.0536909 ] } },
{ "type": "Feature", "properties": { "address": "Madison, Wisconsin, United States", "city": "Moscow" }, "geometry": { "type": "Point", "coordinates": [ -89.3841663, 43.07469 ] } },
{ "type": "Feature", "properties": { "address": "Saclay, 91400, Île-de-France, France", "city": "Oxford" }, "geometry": { "type": "Point", "coordinates": [ 2.172576, 48.7305162 ] } },
{ "type": "Feature", "properties": { "address": "Turin, Iowa, United States", "city": "Princeton" }, "geometry": { "type": "Point", "coordinates": [ -95.9666879, 42.0194272 ] } },
{ "type": "Feature", "properties": { "address": "Aspen, Colorado, United States", "city": "Saint Petersburg" }, "geometry": { "type": "Point", "coordinates": [ -106.82356, 39.1911128 ] } },
{ "type": "Feature", "properties": { "address": "Boston, Massachusetts, United States", "city": "Singapore" }, "geometry": { "type": "Point", "coordinates": [ -71.0578303, 42.3588336 ] } },
{ "type": "Feature", "properties": { "address": "Didcot, South Oxfordshire, England, United Kingdom", "city": "Bangor" }, "geometry": { "type": "Point", "coordinates": [ -1.245999, 51.6063587 ] } },
{ "type": "Feature", "properties": { "address": "Thành phố Hồ Chí Minh, Việt Nam", "city": "Boston" }, "geometry": { "type": "Point", "coordinates": [ 106.7021047, 10.7755254 ] } },
{ "type": "Feature", "properties": { "address": "京都, 南北自由通路, 601-8002, 南北自由通路, 京都市, 京都府, 日本", "city": "Bryan" }, "geometry": { "type": "Point", "coordinates": [ 135.758430299999986, 34.9846076 ] } },
{ "type": "Feature", "properties": { "address": "New York, New York, United States", "city": "Coutances" }, "geometry": { "type": "Point", "coordinates": [ -74.0060152, 40.7127281 ] } },
{ "type": "Feature", "properties": { "address": "静岡市, 420-8602, 静岡県, 日本", "city": "Didcot" }, "geometry": { "type": "Point", "coordinates": [ 138.3831697, 34.9751974 ] } },
{ "type": "Feature", "properties": { "address": "تهران, استان تهران, ایران", "city": "Dublin" }, "geometry": { "type": "Point", "coordinates": [ 51.3896004, 35.6892523 ] } },
{ "type": "Feature", "properties": { "address": "つくば市, 茨城県, 日本", "city": "Everett" }, "geometry": { "type": "Point", "coordinates": [ 140.077279, 36.0833265 ] } },
{ "type": "Feature", "properties": { "address": "Wien, Österreich", "city": "Frankfurt am Main" }, "geometry": { "type": "Point", "coordinates": [ 16.3725042, 48.2083537 ] } },
{ "type": "Feature", "properties": { "address": null, "city": "Garching" }, "geometry": null },
{ "type": "Feature", "properties": { "address": "Amsterdam, Noord-Holland, Nederland", "city": "Hangzhou" }, "geometry": { "type": "Point", "coordinates": [ 4.8924534, 52.3730796 ] } },
{ "type": "Feature", "properties": { "address": "Berlin, Deutschland", "city": "Julich" }, "geometry": { "type": "Point", "coordinates": [ 13.3951309, 52.5173885 ] } },
{ "type": "Feature", "properties": { "address": "Bogota, 07603, New Jersey, United States", "city": "Kearny" }, "geometry": { "type": "Point", "coordinates": [ -74.0298621, 40.8762106 ] } },
{ "type": "Feature", "properties": { "address": "Bryan, Texas, United States", "city": "Kyoto" }, "geometry": { "type": "Point", "coordinates": [ -96.3699632, 30.6743643 ] } },
{ "type": "Feature", "properties": { "address": "Everett, Washington, United States", "city": "Madrid" }, "geometry": { "type": "Point", "coordinates": [ -122.2127011, 47.9793437 ] } },
{ "type": "Feature", "properties": { "address": "杭州市, 浙江省, 中国", "city": "Marseille" }, "geometry": { "type": "Point", "coordinates": [ 120.2052342, 30.2489634 ] } },
{ "type": "Feature", "properties": { "address": "Minneapolis, Minnesota, United States", "city": "Minneapolis" }, "geometry": { "type": "Point", "coordinates": [ -93.2654692, 44.9772995 ] } },
{ "type": "Feature", "properties": { "address": "Москва, Москва, Россия", "city": "Oldham" }, "geometry": { "type": "Point", "coordinates": [ 37.6174782, 55.7505412 ] } },
{ "type": "Feature", "properties": { "address": "Princeton, New Jersey, United States", "city": "San Francisco" }, "geometry": { "type": "Point", "coordinates": [ -74.6597376, 40.3496953 ] } },
{ "type": "Feature", "properties": { "address": "Saint Petersburg, Florida, United States", "city": "Seaford" }, "geometry": { "type": "Point", "coordinates": [ -82.6340259, 27.7712264 ] } },
{ "type": "Feature", "properties": { "address": "仙台市, 宮城県, 日本", "city": "Setagaya City" }, "geometry": { "type": "Point", "coordinates": [ 140.8691498, 38.2677554 ] } },
{ "type": "Feature", "properties": { "address": "深圳市, 广东省, 中国", "city": "Shenzhen" }, "geometry": { "type": "Point", "coordinates": [ 114.0545429, 22.5445741 ] } },
{ "type": "Feature", "properties": { "address": "Somerville, Massachusetts, United States", "city": "Shinagawa City" }, "geometry": { "type": "Point", "coordinates": [ -71.0994968, 42.3875968 ] } },
{ "type": "Feature", "properties": { "address": "Stockholm, 111 29, Sverige", "city": "Thatcham" }, "geometry": { "type": "Point", "coordinates": [ 18.0710935, 59.3251172 ] } },
{ "type": "Feature", "properties": { "address": "Toki, 08-117, województwo mazowieckie, Polska", "city": "Villeurbanne" }, "geometry": { "type": "Point", "coordinates": [ 22.012806, 52.0742306 ] } },
{ "type": "Feature", "properties": { "address": "Villeurbanne, 69100, Auvergne-Rhône-Alpes, France", "city": "Warsaw" }, "geometry": { "type": "Point", "coordinates": [ 4.8796267, 45.7660581 ] } },
{ "type": "Feature", "properties": { "address": "Abingdon, OX14 3UJ, Vale of White Horse, England, United Kingdom", "city": "Aberdeen" }, "geometry": { "type": "Point", "coordinates": [ -1.2779715, 51.6714842 ] } },
{ "type": "Feature", "properties": { "address": "عمان, 11110, محافظة العاصمة, الأردن", "city": "Abingdon" }, "geometry": { "type": "Point", "coordinates": [ 35.9239625, 31.9515694 ] } },
{ "type": "Feature", "properties": { "address": "Bangor, 04401, Maine, United States", "city": "Amman" }, "geometry": { "type": "Point", "coordinates": [ -68.7713289, 44.8016255 ] } },
{ "type": "Feature", "properties": { "address": "Bath, England, United Kingdom", "city": "Aspen" }, "geometry": { "type": "Point", "coordinates": [ -2.3596963, 51.3813864 ] } },
{ "type": "Feature", "properties": { "address": "博尔塔拉蒙古自治州 ᠪᠣᠷᠣᠲᠠᠯ᠎ᠠ ᠶᠢᠨ ᠮᠣᠩᠭᠣᠯ ᠥᠪᠡᠷᠲᠡᠭᠡᠨ ᠵᠠᠰᠠᠬᠤ ᠵᠧᠦ, 833404, 新疆维吾尔自治区 شىنجاڭ ئۇيغۇر ئاپتونوم رايونی, 中国", "city": "Barcelona" }, "geometry": { "type": "Point", "coordinates": [ 82.0629703, 44.904806 ] } },
{ "type": "Feature", "properties": { "address": "北京市, 中国", "city": "Bath" }, "geometry": { "type": "Point", "coordinates": [ 116.3912972, 39.9057136 ] } },
{ "type": "Feature", "properties": { "address": "Boardman, 97818, Oregon, United States", "city": "Bedford" }, "geometry": { "type": "Point", "coordinates": [ -119.700583, 45.839855 ] } },
{ "type": "Feature", "properties": { "address": "Burlington, Vermont, United States", "city": "Beijing" }, "geometry": { "type": "Point", "coordinates": [ -73.212906, 44.4761601 ] } },
{ "type": "Feature", "properties": { "address": "Chennai, Tamil Nadu, India", "city": "Berkeley" }, "geometry": { "type": "Point", "coordinates": [ 80.270186, 13.0836939 ] } },
{ "type": "Feature", "properties": { "address": "College Station, Texas, United States", "city": "Biesenthal" }, "geometry": { "type": "Point", "coordinates": [ -96.3455991, 30.6183939 ] } },
{ "type": "Feature", "properties": { "address": "Coutances, 50200, Normandie, France", "city": "Bremen" }, "geometry": { "type": "Point", "coordinates": [ -1.4454857, 49.047792 ] } },
{ "type": "Feature", "properties": { "address": "Dallas, Texas, United States", "city": "Bristol" }, "geometry": { "type": "Point", "coordinates": [ -96.7968559, 32.7762719 ] } },
{ "type": "Feature", "properties": { "address": "Delhi, India", "city": "Burlington" }, "geometry": { "type": "Point", "coordinates": [ 77.2197713, 28.6328027 ] } },
{ "type": "Feature", "properties": { "address": "Dublin, Éire / Ireland", "city": "Carcassonne" }, "geometry": { "type": "Point", "coordinates": [ -6.2605593, 53.3493795 ] } },
{ "type": "Feature", "properties": { "address": "Fitchburg, 01420, Massachusetts, United States", "city": "Chateaudun" }, "geometry": { "type": "Point", "coordinates": [ -71.8038268, 42.5838984 ] } },
{ "type": "Feature", "properties": { "address": "Gradignan, 33170, Nouvelle-Aquitaine, France", "city": "Cologne" }, "geometry": { "type": "Point", "coordinates": [ -0.613907, 44.7739701 ] } },
{ "type": "Feature", "properties": { "address": "Gunsan Sinsil Church, 조촌안4길, 54076, 조촌안4길, 군산시, 전북특별자치도, 대한민국", "city": "Coquille" }, "geometry": { "type": "Point", "coordinates": [ 126.7348704, 35.9740082 ] } },
{ "type": "Feature", "properties": { "address": "Anantnag, 192101, Jammu and Kashmir, India", "city": "Coventry" }, "geometry": { "type": "Point", "coordinates": [ 75.1455138, 33.7368773 ] } },
{ "type": "Feature", "properties": { "address": "Jülich, 52428, Nordrhein-Westfalen, Deutschland", "city": "Daejeon" }, "geometry": { "type": "Point", "coordinates": [ 6.3611015, 50.9220931 ] } },
{ "type": "Feature", "properties": { "address": "Kearny, 67860, Kansas, United States", "city": "Dalian" }, "geometry": { "type": "Point", "coordinates": [ -101.3523356, 37.9960049 ] } },
{ "type": "Feature", "properties": { "address": "Knoxville, Tennessee, United States", "city": "Dijon" }, "geometry": { "type": "Point", "coordinates": [ -83.9210261, 35.9603948 ] } },
{ "type": "Feature", "properties": { "address": "Manila, Metro Manila, Philippines", "city": "Donostia / San Sebastian" }, "geometry": { "type": "Point", "coordinates": [ 120.9803621, 14.5904492 ] } },
{ "type": "Feature", "properties": { "address": "Marseille, 13000;13001;13002;13003;13004;13005;13006;13007;13008;13009;13010;13011;13012;13013;13014;13015;13016, Provence-Alpes-Côte d'Azur, France", "city": "Dortmund" }, "geometry": { "type": "Point", "coordinates": [ 5.3699525, 43.2961743 ] } },
{ "type": "Feature", "properties": { "address": "Mumbai, 400051, Maharashtra, India", "city": "Dresden" }, "geometry": { "type": "Point", "coordinates": [ 72.8692035, 19.054999 ] } },
{ "type": "Feature", "properties": { "address": "Naples, Florida, United States", "city": "Eagan" }, "geometry": { "type": "Point", "coordinates": [ -81.7942944, 26.1421976 ] } },
{ "type": "Feature", "properties": { "address": "North Augusta, 29841, South Carolina, United States", "city": "Escanaba" }, "geometry": { "type": "Point", "coordinates": [ -81.9705909, 33.4943487 ] } },
{ "type": "Feature", "properties": { "address": "Oldham, Texas, United States", "city": "Evanston" }, "geometry": { "type": "Point", "coordinates": [ -102.6193428, 35.3907651 ] } },
{ "type": "Feature", "properties": { "address": "Oslo Beach, 4240, Hibiscus Coast Local Municipality, KwaZulu-Natal, South Africa", "city": "Faenza" }, "geometry": { "type": "Point", "coordinates": [ 30.4408333, -30.7633333 ] } },
{ "type": "Feature", "properties": { "address": "Roma, Lazio, Italia", "city": "Farragut" }, "geometry": { "type": "Point", "coordinates": [ 12.4829321, 41.8933203 ] } },
{ "type": "Feature", "properties": { "address": "San Diego, California, United States", "city": "Fazenda Rio Grande" }, "geometry": { "type": "Point", "coordinates": [ -117.162772, 32.7174202 ] } },
{ "type": "Feature", "properties": { "address": "San Francisco, California, United States", "city": "Forest City" }, "geometry": { "type": "Point", "coordinates": [ -122.4075201, 37.7879363 ] } },
{ "type": "Feature", "properties": { "address": "Seaford, 19973, Delaware, United States", "city": "Framingham" }, "geometry": { "type": "Point", "coordinates": [ -75.6114584, 38.6413452 ] } },
{ "type": "Feature", "properties": { "address": "Seattle, Washington, United States", "city": "Gunnison" }, "geometry": { "type": "Point", "coordinates": [ -122.330062, 47.6038321 ] } },
{ "type": "Feature", "properties": { "address": "서울특별시, 대한민국", "city": "Gunsan-si" }, "geometry": { "type": "Point", "coordinates": [ 126.9782914, 37.5666791 ] } },
{ "type": "Feature", "properties": { "address": "世田谷区役所, 27, 21, 154-8504, 21, 世田谷区, 東京都, 日本", "city": "Hamamatsu" }, "geometry": { "type": "Point", "coordinates": [ 139.6532504, 35.6465296 ] } },
{ "type": "Feature", "properties": { "address": "渋谷区, 東京都, 日本", "city": "Hanoi" }, "geometry": { "type": "Point", "coordinates": [ 139.696495199999987, 35.6633709 ] } },
{ "type": "Feature", "properties": { "address": "City Tower Shinagawa, 品川埠頭線, 108-0075, 品川埠頭線, 東京都, 日本", "city": "Hayward" }, "geometry": { "type": "Point", "coordinates": [ 139.7480603, 35.6310453 ] } },
{ "type": "Feature", "properties": { "address": "Stanford, 94305, California, United States", "city": "Huancayo" }, "geometry": { "type": "Point", "coordinates": [ -122.1702445, 37.427467 ] } },
{ "type": "Feature", "properties": { "address": "Stratford-upon-Avon, Stratford-on-Avon, England, United Kingdom", "city": "Indaiatuba" }, "geometry": { "type": "Point", "coordinates": [ -1.70634, 52.1927803 ] } },
{ "type": "Feature", "properties": { "address": "Thatcham, England, United Kingdom", "city": "Indore" }, "geometry": { "type": "Point", "coordinates": [ -1.257412, 51.4024177 ] } },
{ "type": "Feature", "properties": { "address": "Warsaw, Indiana, United States", "city": "Jeddah" }, "geometry": { "type": "Point", "coordinates": [ -85.8530544, 41.2381017 ] } },
{ "type": "Feature", "properties": { "address": "盐城市, 江苏省, 中国", "city": "Jiaxing" }, "geometry": { "type": "Point", "coordinates": [ 120.1577019, 33.349559 ] } },
{ "type": "Feature", "properties": { "address": "65440, Missouri, United States", "city": "Jinzhong" }, "geometry": { "type": "Point", "coordinates": [ -91.196509, 37.622299 ] } },
{ "type": "Feature", "properties": { "address": "Aberdeen, Alba / Scotland, United Kingdom", "city": "Kansas City" }, "geometry": { "type": "Point", "coordinates": [ -2.0928095, 57.1482429 ] } },
{ "type": "Feature", "properties": { "address": "Albuquerque, 87102, New Mexico, United States", "city": "Kashiwa" }, "geometry": { "type": "Point", "coordinates": [ -106.650985, 35.0841034 ] } },
{ "type": "Feature", "properties": { "address": "Thị xã An Nhơn, 55400, Gia Lai, Việt Nam", "city": "Kasuga" }, "geometry": { "type": "Point", "coordinates": [ 109.0667821, 13.8572108 ] } },
{ "type": "Feature", "properties": { "address": "Ardmore, Oklahoma, United States", "city": "Katsuura" }, "geometry": { "type": "Point", "coordinates": [ -97.1309119, 34.1729273 ] } },
{ "type": "Feature", "properties": { "address": "Atlanta, Georgia, United States", "city": "Kettering" }, "geometry": { "type": "Point", "coordinates": [ -84.3898151, 33.7544657 ] } },
{ "type": "Feature", "properties": { "address": "Austin, Texas, United States", "city": "Knoxville" }, "geometry": { "type": "Point", "coordinates": [ -97.7436995, 30.2711286 ] } },
{ "type": "Feature", "properties": { "address": "Barcelona, Catalunya, España", "city": "La Montagne" }, "geometry": { "type": "Point", "coordinates": [ 2.177073, 41.3825802 ] } },
{ "type": "Feature", "properties": { "address": "Bari, Puglia, Italia", "city": "Le Mesnil-Amelot" }, "geometry": { "type": "Point", "coordinates": [ 16.8620293, 41.1257843 ] } },
{ "type": "Feature", "properties": { "address": "Bedford, Pennsylvania, United States", "city": "Lohne" }, "geometry": { "type": "Point", "coordinates": [ -78.5237447, 40.0271453 ] } },
{ "type": "Feature", "properties": { "address": "Београд, 11000, Централна Србија, Србија", "city": "Luton" }, "geometry": { "type": "Point", "coordinates": [ 20.4568974, 44.8178131 ] } },
{ "type": "Feature", "properties": { "address": "Bengaluru, Karnataka, India", "city": "Madison" }, "geometry": { "type": "Point", "coordinates": [ 77.590082, 12.9767936 ] } },
{ "type": "Feature", "properties": { "address": "Berkeley, California, United States", "city": "Manning" }, "geometry": { "type": "Point", "coordinates": [ -122.272863, 37.8708393 ] } },
{ "type": "Feature", "properties": { "address": "Beverly, Massachusetts, United States", "city": "Miami" }, "geometry": { "type": "Point", "coordinates": [ -70.8781883, 42.5489744 ] } },
{ "type": "Feature", "properties": { "address": "Biesenthal, 16359, Brandenburg, Deutschland", "city": "Milan" }, "geometry": { "type": "Point", "coordinates": [ 13.6289589, 52.7664978 ] } },
{ "type": "Feature", "properties": { "address": "Birmingham, B2 4AJ, Birmingham, England, United Kingdom", "city": "Minato City" }, "geometry": { "type": "Point", "coordinates": [ -1.9026911, 52.4796992 ] } },
{ "type": "Feature", "properties": { "address": "Boise, Idaho, United States", "city": "Montague" }, "geometry": { "type": "Point", "coordinates": [ -116.200886, 43.6166163 ] } },
{ "type": "Feature", "properties": { "address": "Bremen, Freie Hansestadt Bremen, Deutschland", "city": "Nairobi" }, "geometry": { "type": "Point", "coordinates": [ 8.8071646, 53.0758196 ] } },
{ "type": "Feature", "properties": { "address": "Brighton, BN1 1HJ, England, United Kingdom", "city": "Nakatsugawa" }, "geometry": { "type": "Point", "coordinates": [ -0.1400561, 50.8214626 ] } },
{ "type": "Feature", "properties": { "address": "Brookside, 35036, Alabama, United States", "city": "Naples" }, "geometry": { "type": "Point", "coordinates": [ -86.9166612, 33.6378825 ] } },
{ "type": "Feature", "properties": { "address": "Buenos Aires, Argentina", "city": "Newport News" }, "geometry": { "type": "Point", "coordinates": [ -58.3887904, -34.6095579 ] } },
{ "type": "Feature", "properties": { "address": "Carcassonne, 11000, Occitanie, France", "city": "Newton Aycliffe" }, "geometry": { "type": "Point", "coordinates": [ 2.3491069, 43.2130358 ] } },
{ "type": "Feature", "properties": { "address": "Chakia, Uttar Pradesh, India", "city": "Nice" }, "geometry": { "type": "Point", "coordinates": [ 83.2131103, 24.9411431 ] } },
{ "type": "Feature", "properties": { "address": "Châteaudun, 28200, Centre-Val de Loire, France", "city": "Ningbo" }, "geometry": { "type": "Point", "coordinates": [ 1.3284948, 48.0702298 ] } },
{ "type": "Feature", "properties": { "address": "Cologne, 32430, Occitanie, France", "city": "Oakland" }, "geometry": { "type": "Point", "coordinates": [ 0.9774958, 43.7218277 ] } },
{ "type": "Feature", "properties": { "address": "Comberton, South Cambridgeshire, England, United Kingdom", "city": "Oslo Municipality" }, "geometry": { "type": "Point", "coordinates": [ 0.0220698, 52.186461 ] } },
{ "type": "Feature", "properties": { "address": "Coquille, Oregon, United States", "city": "Oyama" }, "geometry": { "type": "Point", "coordinates": [ -124.187608, 43.177055 ] } },
{ "type": "Feature", "properties": { "address": "Coventry, CV1 1LL, Coventry, England, United Kingdom", "city": "Palermo" }, "geometry": { "type": "Point", "coordinates": [ -1.510477, 52.4081812 ] } },
{ "type": "Feature", "properties": { "address": "Craiova, România", "city": "Presevo" }, "geometry": { "type": "Point", "coordinates": [ 23.7965614, 44.3190159 ] } },
{ "type": "Feature", "properties": { "address": "Croydon, CR0 1SZ, London, England, United Kingdom", "city": "Qingdao" }, "geometry": { "type": "Point", "coordinates": [ -0.101957, 51.3713049 ] } },
{ "type": "Feature", "properties": { "address": "대전광역시, 대한민국", "city": "Roanoke Rapids" }, "geometry": { "type": "Point", "coordinates": [ 127.3849016, 36.3497007 ] } },
{ "type": "Feature", "properties": { "address": "大连市, 辽宁省, 中国", "city": "Sale" }, "geometry": { "type": "Point", "coordinates": [ 122.255833, 39.740278 ] } },
{ "type": "Feature", "properties": { "address": "Davis, Iowa, United States", "city": "San Diego" }, "geometry": { "type": "Point", "coordinates": [ -92.3965311, 40.7474784 ] } },
{ "type": "Feature", "properties": { "address": "Delft, Zuid-Holland, Nederland", "city": "San Giovanni Valdarno" }, "geometry": { "type": "Point", "coordinates": [ 4.35839, 52.0114017 ] } },
{ "type": "Feature", "properties": { "address": "Dhaka, 845418, Bihar, India", "city": "Santa Clara" }, "geometry": { "type": "Point", "coordinates": [ 85.1986362, 26.6923775 ] } },
{ "type": "Feature", "properties": { "address": "Dijon, 21000, Bourgogne-Franche-Comté, France", "city": "Seattle" }, "geometry": { "type": "Point", "coordinates": [ 5.0414701, 47.3215806 ] } },
{ "type": "Feature", "properties": { "address": "الدوحة, قطر", "city": "Seeb" }, "geometry": { "type": "Point", "coordinates": [ 51.5081812, 25.3108807 ] } },
{ "type": "Feature", "properties": { "address": "Donostia / San Sebastián, 20001;20002;20003;20004;20005;20006;20007;20008;20009;20010;20011;20012;20013;20014;20015;20016;20017;20018, Euskadi, España", "city": "Sendai" }, "geometry": { "type": "Point", "coordinates": [ -1.9838889, 43.3224219 ] } },
{ "type": "Feature", "properties": { "address": "Dorsten, Nordrhein-Westfalen, Deutschland", "city": "Seoul" }, "geometry": { "type": "Point", "coordinates": [ 6.9647431, 51.6604071 ] } },
{ "type": "Feature", "properties": { "address": "Dortmund, Nordrhein-Westfalen, Deutschland", "city": "Seville" }, "geometry": { "type": "Point", "coordinates": [ 7.4652789, 51.5142273 ] } },
{ "type": "Feature", "properties": { "address": "Dresden, Sachsen, Deutschland", "city": "Shibuya" }, "geometry": { "type": "Point", "coordinates": [ 13.7381437, 51.0493286 ] } },
{ "type": "Feature", "properties": { "address": "دبي, إمارة دبي, الإمارات العربية المتحدة", "city": "Shihoro" }, "geometry": { "type": "Point", "coordinates": [ 55.289585, 25.2296341 ] } },
{ "type": "Feature", "properties": { "address": "Eagan, Minnesota, United States", "city": "Sint Anthonis" }, "geometry": { "type": "Point", "coordinates": [ -93.1659179, 44.818173 ] } },
{ "type": "Feature", "properties": { "address": "Ecublens FR, 1673, Rue, Fribourg/Freiburg, Schweiz/Suisse/Svizzera/Svizra", "city": "Somerville" }, "geometry": { "type": "Point", "coordinates": [ 6.8089033, 46.6107303 ] } },
{ "type": "Feature", "properties": { "address": "Edlesborough, England, United Kingdom", "city": "Stockholm" }, "geometry": { "type": "Point", "coordinates": [ -0.5852479, 51.8663877 ] } },
{ "type": "Feature", "properties": { "address": "Eichstätt, 85072, Bayern, Deutschland", "city": "Stuttgart" }, "geometry": { "type": "Point", "coordinates": [ 11.1989396, 48.8863328 ] } },
{ "type": "Feature", "properties": { "address": "El Callao, 8056, Bolívar, Venezuela", "city": "Suginami City" }, "geometry": { "type": "Point", "coordinates": [ -61.8331903, 7.3473611 ] } },
{ "type": "Feature", "properties": { "address": "Escanaba, 49829, Michigan, United States", "city": "Swindon" }, "geometry": { "type": "Point", "coordinates": [ -87.0647434, 45.7455707 ] } },
{ "type": "Feature", "properties": { "address": "Evanston, Sheridan Road, 60208, Sheridan Road, Evanston, Illinois, United States", "city": "Tehran" }, "geometry": { "type": "Point", "coordinates": [ -87.682932, 42.0693991 ] } },
{ "type": "Feature", "properties": { "address": "Faenza, 48018, Emilia-Romagna, Italia", "city": "The Dalles" }, "geometry": { "type": "Point", "coordinates": [ 11.8832055, 44.2855555 ] } },
{ "type": "Feature", "properties": { "address": "Farragut, 51639, Iowa, United States", "city": "The Hague" }, "geometry": { "type": "Point", "coordinates": [ -95.480941, 40.7192038 ] } },
{ "type": "Feature", "properties": { "address": "Fazenda Rio Grande, Paraná, Brasil", "city": "Tianjin" }, "geometry": { "type": "Point", "coordinates": [ -49.3126653, -25.645841 ] } },
{ "type": "Feature", "properties": { "address": "Forest City, 50436, Iowa, United States", "city": "Toba" }, "geometry": { "type": "Point", "coordinates": [ -93.6376741, 43.2626747 ] } },
{ "type": "Feature", "properties": { "address": "Fort Gregg-Adams, 23801, Fort Gregg-Adams, Virginia, United States", "city": "Tomsk" }, "geometry": { "type": "Point", "coordinates": [ -77.3305507, 37.2354475 ] } },
{ "type": "Feature", "properties": { "address": "Framingham, Massachusetts, United States", "city": "Toronto" }, "geometry": { "type": "Point", "coordinates": [ -71.4165905, 42.2773177 ] } },
{ "type": "Feature", "properties": { "address": "Geneva, Alabama, United States", "city": "Washington" }, "geometry": { "type": "Point", "coordinates": [ -85.803014, 31.0862933 ] } },
{ "type": "Feature", "properties": { "address": "Grenoble, 38000;38100, Auvergne-Rhône-Alpes, France", "city": "West Springfield" }, "geometry": { "type": "Point", "coordinates": [ 5.7357819, 45.1875602 ] } },
{ "type": "Feature", "properties": { "address": "Grindsted, 7200, Region Syddanmark, Danmark", "city": "Woodbridge Township" }, "geometry": { "type": "Point", "coordinates": [ 8.9277576, 55.7570833 ] } },
{ "type": "Feature", "properties": { "address": "Guayaquil, Provincia del Guayas, Ecuador", "city": "Xi'An" }, "geometry": { "type": "Point", "coordinates": [ -79.8868669, -2.1900572 ] } },
{ "type": "Feature", "properties": { "address": "Gunnison, Colorado, United States", "city": "Zhuhai" }, "geometry": { "type": "Point", "coordinates": [ -107.0603126, 38.6476702 ] } },
{ "type": "Feature", "properties": { "address": "浜松市, 静岡県, 日本", "city": "Zurich" }, "geometry": { "type": "Point", "coordinates": [ 137.7259431, 34.7109786 ] } },
{ "type": "Feature", "properties": { "address": "Hà Nội, Việt Nam", "city": null }, "geometry": { "type": "Point", "coordinates": [ 105.854041, 21.0283334 ] } },
{ "type": "Feature", "properties": { "address": "Hayward, California, United States", "city": null }, "geometry": { "type": "Point", "coordinates": [ -122.080796, 37.6688205 ] } },
{ "type": "Feature", "properties": { "address": "Helsinki, Uusimaa, Suomi", "city": null }, "geometry": { "type": "Point", "coordinates": [ 24.9435408, 60.1666204 ] } },
{ "type": "Feature", "properties": { "address": "Hendersonville, 28738, North Carolina, United States", "city": null }, "geometry": { "type": "Point", "coordinates": [ -82.4609528, 35.3187279 ] } },
{ "type": "Feature", "properties": { "address": "Hisar, Haryāna, India", "city": null }, "geometry": { "type": "Point", "coordinates": [ 75.8174505, 29.2396596 ] } },
{ "type": "Feature", "properties": { "address": "Huancayo, 12001, Huancayo, Junin, Perú", "city": null }, "geometry": { "type": "Point", "coordinates": [ -75.2100953, -12.068098 ] } },
{ "type": "Feature", "properties": { "address": "黄冈市, 湖北省, 中国", "city": null }, "geometry": { "type": "Point", "coordinates": [ 114.8673226, 30.4560187 ] } },
{ "type": "Feature", "properties": { "address": "Indaiatuba, São Paulo, Brasil", "city": null }, "geometry": { "type": "Point", "coordinates": [ -47.2180677, -23.0908356 ] } },
{ "type": "Feature", "properties": { "address": "Indore, 452001, Madhya Pradesh, India", "city": null }, "geometry": { "type": "Point", "coordinates": [ 75.8681996, 22.7203616 ] } },
{ "type": "Feature", "properties": { "address": "Inglis, Florida, United States", "city": null }, "geometry": { "type": "Point", "coordinates": [ -82.6687161, 29.0302514 ] } },
{ "type": "Feature", "properties": { "address": "Jalgaon, Maharashtra, India", "city": null }, "geometry": { "type": "Point", "coordinates": [ 75.5261246, 20.8428827 ] } },
{ "type": "Feature", "properties": { "address": "جدة, 23124, منطقة مكة المكرمة, السعودية", "city": null }, "geometry": { "type": "Point", "coordinates": [ 39.1742363, 21.5504432 ] } },
{ "type": "Feature", "properties": { "address": "嘉兴市, 浙江省, 中国", "city": null }, "geometry": { "type": "Point", "coordinates": [ 120.7510971, 30.7474425 ] } },
{ "type": "Feature", "properties": { "address": "晋中市, 山西省, 中国", "city": null }, "geometry": { "type": "Point", "coordinates": [ 112.7383414, 37.6866796 ] } },
{ "type": "Feature", "properties": { "address": "Kansas City, Missouri, United States", "city": null }, "geometry": { "type": "Point", "coordinates": [ -94.5781416, 39.100105 ] } },
{ "type": "Feature", "properties": { "address": "کراچی, سندھ, پاکستان", "city": null }, "geometry": { "type": "Point", "coordinates": [ 67.0207055, 24.8546842 ] } },
{ "type": "Feature", "properties": { "address": "柏市, 千葉県, 日本", "city": null }, "geometry": { "type": "Point", "coordinates": [ 139.975687599999986, 35.8676218 ] } },
{ "type": "Feature", "properties": { "address": "春日井市, 愛知県, 日本", "city": null }, "geometry": { "type": "Point", "coordinates": [ 136.9721611, 35.2476278 ] } },
{ "type": "Feature", "properties": { "address": "勝浦市, 千葉県, 日本", "city": null }, "geometry": { "type": "Point", "coordinates": [ 140.3207449, 35.1521846 ] } },
{ "type": "Feature", "properties": { "address": "Kettering, Ohio, United States", "city": null }, "geometry": { "type": "Point", "coordinates": [ -84.1688274, 39.6895036 ] } },
{ "type": "Feature", "properties": { "address": "Kilmarnock, KA1 1HZ, Alba / Scotland, United Kingdom", "city": null }, "geometry": { "type": "Point", "coordinates": [ -4.4964652, 55.6100589 ] } },
{ "type": "Feature", "properties": { "address": "Kolkata, West Bengal, India", "city": null }, "geometry": { "type": "Point", "coordinates": [ 88.3638953, 22.5726459 ] } },
{ "type": "Feature", "properties": { "address": "Kuala Lumpur, Malaysia", "city": null }, "geometry": { "type": "Point", "coordinates": [ 101.6942371, 3.1516964 ] } },
{ "type": "Feature", "properties": { "address": "La Montagne, 70310, Bourgogne-Franche-Comté, France", "city": null }, "geometry": { "type": "Point", "coordinates": [ 6.59222, 47.9205 ] } },
{ "type": "Feature", "properties": { "address": "Lagos, 100242, Lagos, Nigeria", "city": null }, "geometry": { "type": "Point", "coordinates": [ 3.3941795, 6.4550575 ] } },
{ "type": "Feature", "properties": { "address": "Lanusè/Lanusei, 08045, Sardigna/Sardegna, Italia", "city": null }, "geometry": { "type": "Point", "coordinates": [ 9.5411469, 39.8792127 ] } },
{ "type": "Feature", "properties": { "address": "Launaguet, 31140, Occitanie, France", "city": null }, "geometry": { "type": "Point", "coordinates": [ 1.4568622, 43.6742484 ] } },
{ "type": "Feature", "properties": { "address": "Le Mesnil-Amelot, 77990, Île-de-France, France", "city": null }, "geometry": { "type": "Point", "coordinates": [ 2.5910318, 49.0172102 ] } },
{ "type": "Feature", "properties": { "address": "Leicester, LE1 5YA, England, United Kingdom", "city": null }, "geometry": { "type": "Point", "coordinates": [ -1.1331969, 52.6362 ] } },
{ "type": "Feature", "properties": { "address": "Livermore, California, United States", "city": null }, "geometry": { "type": "Point", "coordinates": [ -121.768053, 37.6820583 ] } },
{ "type": "Feature", "properties": { "address": "Livorno, Toscana, Italia", "city": null }, "geometry": { "type": "Point", "coordinates": [ 10.3402239, 42.7902379 ] } },
{ "type": "Feature", "properties": { "address": "Lohne, Arendsee, Sachsen-Anhalt, Deutschland", "city": null }, "geometry": { "type": "Point", "coordinates": [ 11.4758766, 52.7838208 ] } },
{ "type": "Feature", "properties": { "address": "Lucknow, 226027, Uttar Pradesh, India", "city": null }, "geometry": { "type": "Point", "coordinates": [ 80.9346001, 26.8381 ] } },
{ "type": "Feature", "properties": { "address": "Ludhiana, 141001, Punjab, India", "city": null }, "geometry": { "type": "Point", "coordinates": [ 75.851601, 30.9090157 ] } },
{ "type": "Feature", "properties": { "address": "Luton, LU1 2YN, England, United Kingdom", "city": null }, "geometry": { "type": "Point", "coordinates": [ -0.4152837, 51.8784385 ] } },
{ "type": "Feature", "properties": { "address": "Manning, Iowa, United States", "city": null }, "geometry": { "type": "Point", "coordinates": [ -95.0650571, 41.9092293 ] } },
{ "type": "Feature", "properties": { "address": "Mansfield, Ohio, United States", "city": null }, "geometry": { "type": "Point", "coordinates": [ -82.5154471, 40.75839 ] } },
{ "type": "Feature", "properties": { "address": "Mauléon-Licharre, 64130, Nouvelle-Aquitaine, France", "city": null }, "geometry": { "type": "Point", "coordinates": [ -0.8885873, 43.2233373 ] } },
{ "type": "Feature", "properties": { "address": "Miami, Florida, United States", "city": null }, "geometry": { "type": "Point", "coordinates": [ -80.1935973, 25.7741566 ] } },
{ "type": "Feature", "properties": { "address": "福山市立大学, 福山港松浜線, 721-0952, 福山港松浜線, 福山市, 広島県, 日本", "city": null }, "geometry": { "type": "Point", "coordinates": [ 133.3812021, 34.4819051 ] } },
{ "type": "Feature", "properties": { "address": "Modesto, California, United States", "city": null }, "geometry": { "type": "Point", "coordinates": [ -120.9968892, 37.6393419 ] } },
{ "type": "Feature", "properties": { "address": "Montague, Texas, United States", "city": null }, "geometry": { "type": "Point", "coordinates": [ -97.7215754, 33.6205753 ] } },
{ "type": "Feature", "properties": { "address": "Murfreesboro, Tennessee, United States", "city": null }, "geometry": { "type": "Point", "coordinates": [ -86.3921096, 35.8460396 ] } },
{ "type": "Feature", "properties": { "address": "Nagercoil, 629001, Tamil Nadu, India", "city": null }, "geometry": { "type": "Point", "coordinates": [ 77.4315437, 8.1839904 ] } },
{ "type": "Feature", "properties": { "address": "Nagpur, Maharashtra, India", "city": null }, "geometry": { "type": "Point", "coordinates": [ 79.0820556, 21.1498134 ] } },
{ "type": "Feature", "properties": { "address": "Nairobi, Kenya", "city": null }, "geometry": { "type": "Point", "coordinates": [ 36.8172812, -1.2890006 ] } },
{ "type": "Feature", "properties": { "address": "مرقد الامام علي, العراق", "city": null }, "geometry": { "type": "Point", "coordinates": [ 43.8411337, 31.338353 ] } },
{ "type": "Feature", "properties": { "address": "中津川市, 岐阜県, 日本", "city": null }, "geometry": { "type": "Point", "coordinates": [ 137.500540199999989, 35.4876463 ] } },
{ "type": "Feature", "properties": { "address": "Naperville, Illinois, United States", "city": null }, "geometry": { "type": "Point", "coordinates": [ -88.1479278, 41.7728699 ] } },
{ "type": "Feature", "properties": { "address": "Newark, New Jersey, United States", "city": null }, "geometry": { "type": "Point", "coordinates": [ -74.1723667, 40.735657 ] } },
{ "type": "Feature", "properties": { "address": "Newport News, Virginia, United States", "city": null }, "geometry": { "type": "Point", "coordinates": [ -76.42977, 36.9775016 ] } },
{ "type": "Feature", "properties": { "address": "Newton Aycliffe, England, United Kingdom", "city": null }, "geometry": { "type": "Point", "coordinates": [ -1.5663624, 54.6218534 ] } },
{ "type": "Feature", "properties": { "address": "Nice, 06000;06100;06200;06300, Provence-Alpes-Côte d'Azur, France", "city": null }, "geometry": { "type": "Point", "coordinates": [ 7.2683912, 43.7009358 ] } },
{ "type": "Feature", "properties": { "address": "Nijmegen, Nijmegen, Gelderland, Nederland", "city": null }, "geometry": { "type": "Point", "coordinates": [ 5.8389606, 51.8425749 ] } },
{ "type": "Feature", "properties": { "address": "宁波, 19号, 南站东路, 315010, 南站东路, 宁波市, 浙江省, 中国", "city": null }, "geometry": { "type": "Point", "coordinates": [ 121.5326567, 29.8646327 ] } },
{ "type": "Feature", "properties": { "address": "Nocera Superiore, Campania, Italia", "city": null }, "geometry": { "type": "Point", "coordinates": [ 14.6715039, 40.7415603 ] } },
{ "type": "Feature", "properties": { "address": "Nola, Campania, Italia", "city": null }, "geometry": { "type": "Point", "coordinates": [ 14.5327402, 40.9210826 ] } },
{ "type": "Feature", "properties": { "address": "Northeim, 37154, Niedersachsen, Deutschland", "city": null }, "geometry": { "type": "Point", "coordinates": [ 10.0004239, 51.7056794 ] } },
{ "type": "Feature", "properties": { "address": "Norwich, England, United Kingdom", "city": null }, "geometry": { "type": "Point", "coordinates": [ 1.2923954, 52.6285576 ] } },
{ "type": "Feature", "properties": { "address": "Oakland, California, United States", "city": null }, "geometry": { "type": "Point", "coordinates": [ -122.271356, 37.8044557 ] } },
{ "type": "Feature", "properties": { "address": "大阪市, 大阪府, 日本", "city": null }, "geometry": { "type": "Point", "coordinates": [ 135.5014539, 34.6937569 ] } },
{ "type": "Feature", "properties": { "address": "Ottawa, Ontario, Canada", "city": null }, "geometry": { "type": "Point", "coordinates": [ -75.6901106, 45.4208777 ] } },
{ "type": "Feature", "properties": { "address": "小山市, 栃木県, 日本", "city": null }, "geometry": { "type": "Point", "coordinates": [ 139.8006952, 36.315537 ] } },
{ "type": "Feature", "properties": { "address": "Palermo, 90121;90122;90123;90124;90125;90126;90127;90128;90129;90131;90133;90134;90135;90136;90137;90138;90139;90141;90142;90143;90144;90145;90146;90147;90148;90149;90151, Sicilia, Italia", "city": null }, "geometry": { "type": "Point", "coordinates": [ 13.3524434, 38.1112268 ] } },
{ "type": "Feature", "properties": { "address": "Palo Alto, California, United States", "city": null }, "geometry": { "type": "Point", "coordinates": [ -122.1598465, 37.4443293 ] } },
{ "type": "Feature", "properties": { "address": "Panama City, Florida, United States", "city": null }, "geometry": { "type": "Point", "coordinates": [ -85.6602936, 30.1586518 ] } },
{ "type": "Feature", "properties": { "address": "Paraparaumu, 5032, Wellington, New Zealand / Aotearoa", "city": null }, "geometry": { "type": "Point", "coordinates": [ 175.0061963, -40.9144636 ] } },
{ "type": "Feature", "properties": { "address": "Пенза, Пензенская область, Россия", "city": null }, "geometry": { "type": "Point", "coordinates": [ 45.0190437, 53.1953477 ] } },
{ "type": "Feature", "properties": { "address": "Philadelphia, Pennsylvania, United States", "city": null }, "geometry": { "type": "Point", "coordinates": [ -75.1635262, 39.9527237 ] } },
{ "type": "Feature", "properties": { "address": "Pistoia, Toscana, Italia", "city": null }, "geometry": { "type": "Point", "coordinates": [ 10.8687081, 43.9740957 ] } },
{ "type": "Feature", "properties": { "address": "Plymouth, England, United Kingdom", "city": null }, "geometry": { "type": "Point", "coordinates": [ -4.1424451, 50.3714122 ] } },
{ "type": "Feature", "properties": { "address": "Portsmouth, England, United Kingdom", "city": null }, "geometry": { "type": "Point", "coordinates": [ -1.0906023, 50.800031 ] } },
{ "type": "Feature", "properties": { "address": "Прешево, 17523, Општина Прешево, Централна Србија, Србија", "city": null }, "geometry": { "type": "Point", "coordinates": [ 21.6490102, 42.3095217 ] } },
{ "type": "Feature", "properties": { "address": "青岛市, 266000, 山东省, 中国", "city": null }, "geometry": { "type": "Point", "coordinates": [ 120.3777659, 36.0663249 ] } },
{ "type": "Feature", "properties": { "address": "Quito, 170130, Latitud 0 Farms, Ecuador", "city": null }, "geometry": { "type": "Point", "coordinates": [ -78.5123274, -0.2201641 ] } },
{ "type": "Feature", "properties": { "address": "Raipur, 493332, Chhattisgarh, India", "city": null }, "geometry": { "type": "Point", "coordinates": [ 81.6336993, 21.2380912 ] } },
{ "type": "Feature", "properties": { "address": "Rawalpindi, Bennetts Road, B8 1QH, Bennetts Road, Birmingham, England, United Kingdom", "city": null }, "geometry": { "type": "Point", "coordinates": [ -1.8530207, 52.4956838 ] } },
{ "type": "Feature", "properties": { "address": "Roanoke Rapids, North Carolina, United States", "city": null }, "geometry": { "type": "Point", "coordinates": [ -77.6573514, 36.4558016 ] } },
{ "type": "Feature", "properties": { "address": "Roseville, California, United States", "city": null }, "geometry": { "type": "Point", "coordinates": [ -121.2880059, 38.7521235 ] } },
{ "type": "Feature", "properties": { "address": "Rourkela, 769002, Odisha, India", "city": null }, "geometry": { "type": "Point", "coordinates": [ 84.8678705, 22.2309255 ] } },
{ "type": "Feature", "properties": { "address": "Sale, 15045, Piemonte, Italia", "city": null }, "geometry": { "type": "Point", "coordinates": [ 8.809348, 44.980656 ] } },
{ "type": "Feature", "properties": { "address": "Salerno, Campania, Italia", "city": null }, "geometry": { "type": "Point", "coordinates": [ 14.7594542, 40.6803601 ] } },
{ "type": "Feature", "properties": { "address": "San Fernando, 11100, Andalucía, España", "city": null }, "geometry": { "type": "Point", "coordinates": [ -6.1983492, 36.4646672 ] } },
{ "type": "Feature", "properties": { "address": "San Giovanni Valdarno, 52027, Toscana, Italia", "city": null }, "geometry": { "type": "Point", "coordinates": [ 11.5305954, 43.5649304 ] } },
{ "type": "Feature", "properties": { "address": "Santa Clara, California, United States", "city": null }, "geometry": { "type": "Point", "coordinates": [ -121.6846349, 37.2333253 ] } },
{ "type": "Feature", "properties": { "address": "São Paulo, São Paulo, Brasil", "city": null }, "geometry": { "type": "Point", "coordinates": [ -46.6333824, -23.5506507 ] } },
{ "type": "Feature", "properties": { "address": "Саратов, 410000, Саратовская область, Россия", "city": null }, "geometry": { "type": "Point", "coordinates": [ 46.034683, 51.530018 ] } },
{ "type": "Feature", "properties": { "address": "Scottsdale, Arizona, United States", "city": null }, "geometry": { "type": "Point", "coordinates": [ -111.926018, 33.4942189 ] } },
{ "type": "Feature", "properties": { "address": "SeaTac, Washington, United States", "city": null }, "geometry": { "type": "Point", "coordinates": [ -122.283084, 47.4449086 ] } },
{ "type": "Feature", "properties": { "address": "Seebach, 67160, Grand Est, France", "city": null }, "geometry": { "type": "Point", "coordinates": [ 7.9913427, 48.9693147 ] } },
{ "type": "Feature", "properties": { "address": "Seville, 93670, California, United States", "city": null }, "geometry": { "type": "Point", "coordinates": [ -119.2229122, 36.485732 ] } },
{ "type": "Feature", "properties": { "address": "إمارة الشارقة, الإمارات العربية المتحدة", "city": null }, "geometry": { "type": "Point", "coordinates": [ 55.6934811, 25.2691848 ] } },
{ "type": "Feature", "properties": { "address": "士幌町, 北海道, 日本", "city": null }, "geometry": { "type": "Point", "coordinates": [ 143.2418046, 43.1681995 ] } },
{ "type": "Feature", "properties": { "address": "Silkeborg, 8600, Region Midtjylland, Danmark", "city": null }, "geometry": { "type": "Point", "coordinates": [ 9.5495141, 56.169453 ] } },
{ "type": "Feature", "properties": { "address": "Sint Anthonis, Noord-Brabant, Nederland", "city": null }, "geometry": { "type": "Point", "coordinates": [ 5.8816763, 51.626921 ] } },
{ "type": "Feature", "properties": { "address": "Skietnek se Laagte, 6720, Langeberg Local Municipality, Western Cape, South Africa", "city": null }, "geometry": { "type": "Point", "coordinates": [ 20.1361111, -33.7644444 ] } },
{ "type": "Feature", "properties": { "address": "Spalding, Georgia, United States", "city": null }, "geometry": { "type": "Point", "coordinates": [ -84.2770865, 33.2591296 ] } },
{ "type": "Feature", "properties": { "address": "Stuttgart, Baden-Württemberg, Deutschland", "city": null }, "geometry": { "type": "Point", "coordinates": [ 9.1800132, 48.7784485 ] } },
{ "type": "Feature", "properties": { "address": "Suffolk, England, United Kingdom", "city": null }, "geometry": { "type": "Point", "coordinates": [ 1.0465716, 52.2410014 ] } },
{ "type": "Feature", "properties": { "address": "杉並区役所, 青梅街道, 166-8570, 青梅街道, 東京都, 日本", "city": null }, "geometry": { "type": "Point", "coordinates": [ 139.6363543, 35.6996212 ] } },
{ "type": "Feature", "properties": { "address": "Swindon, SN1 1JZ, England, United Kingdom", "city": null }, "geometry": { "type": "Point", "coordinates": [ -1.7854322, 51.5615327 ] } },
{ "type": "Feature", "properties": { "address": "Témara ⵜⵎⴰⵔⴰ تمارة, Rabat-Salé-Kénitra ⴻⵕⵕⴱⴰⵟ-ⵙⵍⴰ-ⵈⵏⵉⵟⵔⴰ الرباط سلا, Maroc ⵍⵎⵖⵔⵉⴱ المغرب", "city": null }, "geometry": { "type": "Point", "coordinates": [ -6.923804, 33.917166 ] } },
{ "type": "Feature", "properties": { "address": "The Dalles, 97058, Oregon, United States", "city": null }, "geometry": { "type": "Point", "coordinates": [ -121.1841587, 45.6015056 ] } },
{ "type": "Feature", "properties": { "address": "Den Haag, Zuid-Holland, Nederland", "city": null }, "geometry": { "type": "Point", "coordinates": [ 4.3113461, 52.0799838 ] } },
{ "type": "Feature", "properties": { "address": "Thiruvananthapuram, 695001, Kerala, India", "city": null }, "geometry": { "type": "Point", "coordinates": [ 76.947551, 8.4882267 ] } },
{ "type": "Feature", "properties": { "address": "天津, 海河广场, 300010, 海河广场, 河北区, 天津, 中国", "city": null }, "geometry": { "type": "Point", "coordinates": [ 117.2036841, 39.1357517 ] } },
{ "type": "Feature", "properties": { "address": "Tiranë, 1001-1028, Shqipëria Qendrore, Shqipëria", "city": null }, "geometry": { "type": "Point", "coordinates": [ 19.8184435, 41.3281482 ] } },
{ "type": "Feature", "properties": { "address": "Toba, Koloriang, Arunachal Pradesh, India", "city": null }, "geometry": { "type": "Point", "coordinates": [ 93.2907437, 27.9156223 ] } },
{ "type": "Feature", "properties": { "address": "Томск, 634000, Томская область, Россия", "city": null }, "geometry": { "type": "Point", "coordinates": [ 84.9523434, 56.4887526 ] } },
{ "type": "Feature", "properties": { "address": "Toronto, Ontario, Canada", "city": null }, "geometry": { "type": "Point", "coordinates": [ -79.3839347, 43.6534817 ] } },
{ "type": "Feature", "properties": { "address": "تونس, ولاية تونس, تونس", "city": null }, "geometry": { "type": "Point", "coordinates": [ 10.1857757, 36.8002068 ] } },
{ "type": "Feature", "properties": { "address": "Västerås, 721 01, Sverige", "city": null }, "geometry": { "type": "Point", "coordinates": [ 16.5463679, 59.6110992 ] } },
{ "type": "Feature", "properties": { "address": "Venice, 70091, Louisiana, United States", "city": null }, "geometry": { "type": "Point", "coordinates": [ -89.3587403, 29.2790634 ] } },
{ "type": "Feature", "properties": { "address": "Vetralla, Lazio, Italia", "city": null }, "geometry": { "type": "Point", "coordinates": [ 12.0575, 42.3205336 ] } },
{ "type": "Feature", "properties": { "address": "Viareggio, 55049, Toscana, Italia", "city": null }, "geometry": { "type": "Point", "coordinates": [ 10.2506055, 43.8672392 ] } },
{ "type": "Feature", "properties": { "address": "Việt Trì, 35100, Phú Thọ, Việt Nam", "city": null }, "geometry": { "type": "Point", "coordinates": [ 105.3946287, 21.3135419 ] } },
{ "type": "Feature", "properties": { "address": "Vijayawada, 520001, Andhra Pradesh, India", "city": null }, "geometry": { "type": "Point", "coordinates": [ 80.6160469, 16.5115306 ] } },
{ "type": "Feature", "properties": { "address": "Villeneuve-d'Ascq, 59491;59493;59650, Hauts-de-France, France", "city": null }, "geometry": { "type": "Point", "coordinates": [ 3.1314002, 50.6193174 ] } },
{ "type": "Feature", "properties": { "address": "Vitoria-Gasteiz, 01001, Euskadi, España", "city": null }, "geometry": { "type": "Point", "coordinates": [ -2.6724025, 42.8465088 ] } },
{ "type": "Feature", "properties": { "address": "Washington, District of Columbia, United States", "city": null }, "geometry": { "type": "Point", "coordinates": [ -77.0363849, 38.8950982 ] } },
{ "type": "Feature", "properties": { "address": "Wessling, Heek, Nordrhein-Westfalen, Deutschland", "city": null }, "geometry": { "type": "Point", "coordinates": [ 7.0866595, 52.1316192 ] } },
{ "type": "Feature", "properties": { "address": "West Point, Cullum Road, 10997, Cullum Road, West Point, NY, United States", "city": null }, "geometry": { "type": "Point", "coordinates": [ -73.9550092, 41.3951027 ] } },
{ "type": "Feature", "properties": { "address": "West Springfield, 01089, MA, United States", "city": null }, "geometry": { "type": "Point", "coordinates": [ -72.6213712, 42.105237 ] } },
{ "type": "Feature", "properties": { "address": "Woodbridge Township, New Jersey, United States", "city": null }, "geometry": { "type": "Point", "coordinates": [ -74.2823881, 40.5536536 ] } },
{ "type": "Feature", "properties": { "address": "西安区, 157000, 黑龙江省, 中国", "city": null }, "geometry": { "type": "Point", "coordinates": [ 129.609026699999987, 44.5754873 ] } },
{ "type": "Feature", "properties": { "address": "烟台市, 264000, 山东省, 中国", "city": null }, "geometry": { "type": "Point", "coordinates": [ 121.4425255, 37.461928 ] } },
{ "type": "Feature", "properties": { "address": "珠海, 519000, 珠海市, 广东省, 中国", "city": null }, "geometry": { "type": "Point", "coordinates": [ 113.5439406, 22.2180959 ] } },
{ "type": "Feature", "properties": { "address": "Жуковский, Челябинская область, Россия", "city": null }, "geometry": { "type": "Point", "coordinates": [ 59.0129537, 53.8907473 ] } },
{ "type": "Feature", "properties": { "address": "Zurich, Kansas, United States", "city": null }, "geometry": { "type": "Point", "coordinates": [ -99.438161, 39.234454 ] } },
{ "type": "Feature", "properties": { "address": "Zurich, Kansas, United States", "city": null }, "geometry": { "type": "Point", "coordinates": [ -99.438161, 39.234454 ] } }
]
}
